No.,Account, Name,Business Name,Arabic Name,,city,Business Category,Business Email,created_at,updated_at,logo,bio,catalogue,phone,Loyalty,deleted,region,arabicKeyWords,arabicBio,branchesLimit,pushNotificationLimit,pushNotificationsBalance,pushNotificationUsage,planId,integrations,branches,team
1,FALSE,New Business ,New Business1602097831975,,,,None,,2020-10-07T19:10:32.440Z,2022-10-03T19:10:23.080Z,,,,,FALSE,FALSE,,[],,,,0,,,,[],"[{""_id"":""5f7e12a835b5fa5ecd0f7b59"",""userId"":""5f7e12a835b5fa5ecd0f7b58"",""role"":""OWNER"",""email"":""abuntuxhosa@gmail.com"",""created_at"":""2020-10-07T19:10:32.440Z"",""updated_at"":""2020-10-07T19:10:32.440Z""}]"
2,FALSE,New Business ,New Business1632842098468,,,,None,,2021-09-28T15:14:58.949Z,2022-10-03T19:10:47.065Z,,,,,TRUE,FALSE,,[],,,,0,,,,[],"[{""_id"":""61533172785e1465d9b1ca23"",""userId"":""61533172785e1465d9b1ca22"",""role"":""OWNER"",""email"":""majid@resal.me"",""created_at"":""2021-09-28T15:14:58.946Z"",""updated_at"":""2021-09-28T15:14:58.946Z""}]"
3,FALSE,New Business ,New Business1603578408861,,,,None,,2020-10-24T22:26:49.379Z,2022-10-03T19:10:32.374Z,,,,,TRUE,FALSE,,[],,10,50000,50000,0,,"[{""_id"":""620235f41be11724566e286a"",""active"":true,""integrationName"":""FOODICS"",""activationDate"":""2022-02-08T08:37:23.151Z""}]","[{""sourceId"":null,""reference"":null,""main"":false,""phone"":null,""_id"":""5f9c9cf5c4a55a002e51882f"",""lat"":""21.5"",""lng"":""39.17"",""workingHours"":{""sunday"":{""working"":true,""shifts"":[{""from"":""08:00"",""to"":""17:00""}]},""monday"":{""working"":true,""shifts"":[{""from"":""08:00"",""to"":""17:00""}]},""tuesday"":{""working"":true,""shifts"":[{""from"":""08:00"",""to"":""17:00""}]},""wednesday"":{""working"":true,""shifts"":[{""from"":""08:00"",""to"":""17:00""}]},""thursday"":{""working"":true,""shifts"":[{""from"":""08:00"",""to"":""17:00""}]},""friday"":{""working"":true,""shifts"":[{""from"":""08:00"",""to"":""17:00""}]},""saturday"":{""working"":true,""shifts"":[{""from"":""08:00"",""to"":""17:00""}]}},""name"":""Branch 01"",""arabicName"":""الفرع 01"",""updated_at"":""2021-03-18T15:46:20.361Z"",""created_at"":""2021-03-18T15:46:20.361Z""}]","[{""_id"":""5f94aa297ddb6d0b3e26cdfe"",""userId"":""5f94aa297ddb6d0b3e26cdfd"",""role"":""OWNER"",""email"":""demo@foodics.com"",""created_at"":""2020-10-24T22:26:49.379Z"",""updated_at"":""2020-10-24T22:26:49.379Z""}]"
4,FALSE,New Business ,New Business1611140715212,,,,None,,2021-01-20T11:05:15.684Z,2022-10-03T19:10:38.538Z,,,,,FALSE,FALSE,,[],,,,0,,,,"[{""sourceId"":null,""reference"":null,""main"":false,""phone"":null,""_id"":""60083001758171002c92be99"",""lat"":""21.5"",""lng"":""39.17"",""workingHours"":{""sunday"":{""working"":true,""shifts"":[{""from"":""08:00"",""to"":""17:00""}]},""monday"":{""working"":true,""shifts"":[{""from"":""08:00"",""to"":""17:00""}]},""tuesday"":{""working"":true,""shifts"":[{""from"":""08:00"",""to"":""17:00""}]},""wednesday"":{""working"":true,""shifts"":[{""from"":""08:00"",""to"":""17:00""}]},""thursday"":{""working"":true,""shifts"":[{""from"":""08:00"",""to"":""17:00""}]},""friday"":{""working"":true,""shifts"":[{""from"":""08:00"",""to"":""17:00""}]},""saturday"":{""working"":true,""shifts"":[{""from"":""08:00"",""to"":""17:00""}]}},""name"":""OD Cafe"",""arabicName"":""او دي كافيه"",""updated_at"":""2021-03-18T15:46:21.245Z"",""created_at"":""2021-03-18T15:46:21.245Z""}]","[{""_id"":""60080e6b1c5fab5fcf2db0ad"",""userId"":""60080e6b1c5fab5fcf2db0ac"",""role"":""OWNER"",""email"":""o.darwish@boonus.app"",""created_at"":""2021-01-20T11:05:15.684Z"",""updated_at"":""2021-01-20T11:05:15.684Z""}]"
5,FALSE,New Business ,New Business1620158962851,,,,None,,2021-05-04T20:09:23.419Z,2022-10-03T19:10:43.322Z,,,,,TRUE,FALSE,,[],,,,0,,,,[],"[{""_id"":""6091a9f3bb25d8699add0729"",""userId"":""6091a9f3bb25d8699add0728"",""role"":""OWNER"",""email"":""mmn@eatchineseksa.com"",""created_at"":""2021-05-04T20:09:23.418Z"",""updated_at"":""2021-05-04T20:09:23.418Z""}]"
6,FALSE,New Business ,New Business1632990108031,,,,None,,2021-09-30T08:21:49.040Z,2022-10-03T19:10:47.575Z,,,,,FALSE,FALSE,,[],,,,0,,,,[],"[{""_id"":""6155739d33051c0037ba4568"",""userId"":""6155739c33051c0037ba4567"",""role"":""OWNER"",""email"":""w.kuddah@boonus.app"",""created_at"":""2021-09-30T08:21:49.036Z"",""updated_at"":""2021-09-30T08:21:49.036Z""}]"
7,FALSE,New Business ,New Business1602416750273,,,,None,,2020-10-11T11:45:50.793Z,2022-10-03T19:10:28.323Z,,,,,FALSE,FALSE,,[],,,,0,,,,[],"[{""_id"":""5f82f06e5df0c90a59cee82a"",""userId"":""5f82f06e5df0c90a59cee829"",""role"":""OWNER"",""email"":""yousef@fost-co.com"",""created_at"":""2020-10-11T11:45:50.792Z"",""updated_at"":""2020-10-11T11:45:50.792Z""}]"
8,FALSE,New Business ,New Business1645367504497,,,,Snacks Nuts,,2022-02-20T14:31:44.859Z,2022-10-03T19:10:53.710Z,,,,,FALSE,FALSE,,[],,1,2000,2000,0,,[],[],"[{""_id"":""621250d04ebd7d001d486a6d"",""userId"":""621250d04ebd7d001d486a6c"",""role"":""OWNER"",""email"":""delete_alsawat@ashcafes.com"",""created_at"":""2022-02-20T14:31:44.857Z"",""updated_at"":""2022-08-24T13:22:40.777Z""}]"
9,TRUE,New Business ,New Business1654645418391,,,,None,,2022-06-07T23:43:38.750Z,2022-10-03T19:11:05.410Z,,,,,TRUE,FALSE,,[],,1,2000,2000,0,,[],[],"[{""_id"":""629fe2aa601ffd001d890935"",""userId"":""629fe2aa601ffd001d890934"",""role"":""OWNER"",""email"":""arj.89@hotmail.com"",""created_at"":""2022-06-07T23:43:38.749Z"",""updated_at"":""2022-06-07T23:43:38.749Z""}]"
10,TRUE,New Business ,New Business1654783151428,,,,None,,2022-06-09T13:59:11.902Z,2022-10-03T19:11:06.936Z,,,,,TRUE,FALSE,,[],,1,2000,2000,0,,[],[],"[{""_id"":""62a1fcaf5cf5c9001d0d92e2"",""userId"":""62a1fcaf5cf5c9001d0d92e1"",""role"":""OWNER"",""email"":""faris.alhamdan@gmail.com"",""created_at"":""2022-06-09T13:59:11.901Z"",""updated_at"":""2022-06-09T13:59:11.901Z""}]"
11,FALSE,New Business ,New Business1655111932082,,,,None,,2022-06-13T09:18:52.443Z,2022-10-03T19:11:08.492Z,,,,,FALSE,FALSE,,[],,1,2000,2000,0,,[],[],"[{""_id"":""62a700fc5cf5c9001d14f359"",""userId"":""62a700fc5cf5c9001d14f358"",""role"":""OWNER"",""email"":""delete_mlhmah01@gmail.com"",""created_at"":""2022-06-13T09:18:52.442Z"",""updated_at"":""2022-08-24T13:23:57.857Z""}]"
12,FALSE,New Business ,New Business1655219093701,,,,None,,2022-06-14T15:04:54.069Z,2022-10-03T19:11:09.506Z,,,,,FALSE,FALSE,,[],,1,2000,2000,0,,[],[],"[{""_id"":""62a8a3965cf5c9001d16d2e3"",""userId"":""62a8a3965cf5c9001d16d2e2"",""role"":""OWNER"",""email"":""delete_mlhmah01@gmail.om"",""created_at"":""2022-06-14T15:04:54.067Z"",""updated_at"":""2022-08-24T13:23:29.158Z""}]"
13,FALSE,New Business ,New Business1655278063085,,,,None,,2022-06-15T07:27:43.441Z,2022-10-03T19:11:10.630Z,,,,,FALSE,FALSE,,[],,1,2000,2000,0,,[],[],"[{""_id"":""62a989ef5cf5c9001d17d95d"",""userId"":""62a989ef5cf5c9001d17d95c"",""role"":""OWNER"",""email"":""ar.89.jami@gmail.com"",""created_at"":""2022-06-15T07:27:43.440Z"",""updated_at"":""2022-06-15T07:27:43.440Z""}]"
14,TRUE,New Business ,New Business1655567830119,,,,None,,2022-06-18T15:57:10.488Z,2022-10-03T19:11:11.141Z,,,,,TRUE,FALSE,,[],,1,2000,2000,0,,[],[],"[{""_id"":""62adf5d65cf5c9001d1e938c"",""userId"":""62adf5d65cf5c9001d1e938b"",""role"":""OWNER"",""email"":""leeds.2050@gmail.com"",""created_at"":""2022-06-18T15:57:10.487Z"",""updated_at"":""2022-06-18T15:57:10.487Z""}]"
15,FALSE,New Business ,New Business1655801118993,,,,None,,2022-06-21T08:45:19.359Z,2022-10-03T19:11:12.882Z,,,,,FALSE,FALSE,,[],,1,2000,2000,0,,[],[],"[{""_id"":""62b1851f5cf5c9001d255642"",""userId"":""62b1851f5cf5c9001d255641"",""role"":""OWNER"",""email"":""hayat.bathfary@gmail.com"",""created_at"":""2022-06-21T08:45:19.358Z"",""updated_at"":""2022-06-21T08:45:19.358Z""}]"
16,FALSE,New Business ,New Business1655804862327,,,,None,,2022-06-21T09:47:42.685Z,2022-10-03T19:11:13.405Z,,,,,FALSE,FALSE,,[],,1,2000,2000,0,,[],[],"[{""_id"":""62b193be5cf5c9001d2583d9"",""userId"":""62b193be5cf5c9001d2583d8"",""role"":""OWNER"",""email"":""f.hamdan.j@gmail.com"",""created_at"":""2022-06-21T09:47:42.684Z"",""updated_at"":""2022-06-21T09:47:42.684Z""}]"
17,FALSE,New Business ,New Business1655900081523,,,,None,,2022-06-22T12:14:41.913Z,2022-10-03T19:11:14.442Z,,,,,FALSE,FALSE,,[],,1,2000,2000,0,,[],[],"[{""_id"":""62b307b157278a001dd22d1a"",""userId"":""62b307b157278a001dd22d19"",""role"":""OWNER"",""email"":""hayat.bathfary91@gmail.com"",""created_at"":""2022-06-22T12:14:41.912Z"",""updated_at"":""2022-06-22T12:14:41.912Z""}]"
18,FALSE,New Business ,New Business1655909212243,,,,None,,2022-06-22T14:46:52.621Z,2022-10-03T19:11:15.010Z,,,,,FALSE,FALSE,,[],,1,2000,2000,0,,[],[],"[{""_id"":""62b32b5c57278a001dd27b84"",""userId"":""62b32b5c57278a001dd27b83"",""role"":""OWNER"",""email"":""delete_Mnssor7788@hotmail.com"",""created_at"":""2022-06-22T14:46:52.619Z"",""updated_at"":""2022-08-24T13:24:58.139Z""}]"
19,TRUE,New Business ,New Business1656325364630,,,,None,,2022-06-27T10:22:45.007Z,2022-10-03T19:11:16.501Z,,,,,TRUE,FALSE,,[],,1,2000,2000,0,,[],[],"[{""_id"":""62b984f557278a001ddc7984"",""userId"":""62b984f557278a001ddc7983"",""role"":""OWNER"",""email"":""marketing@romana.sa"",""created_at"":""2022-06-27T10:22:45.005Z"",""updated_at"":""2022-06-27T10:22:45.005Z""}]"
20,TRUE,New Business ,New Business1656546939519,,,,None,,2022-06-29T23:55:39.943Z,2022-10-03T19:11:18.020Z,,,,,TRUE,FALSE,,[],,1,2000,2000,0,,[],[],"[{""_id"":""62bce67b57278a001de2271e"",""userId"":""62bce67b57278a001de2271d"",""role"":""OWNER"",""email"":""shipsyburger@gmail.com"",""created_at"":""2022-06-29T23:55:39.940Z"",""updated_at"":""2022-06-29T23:55:39.940Z""}]"
21,TRUE,New Business ,New Business1656547011782,,,,None,,2022-06-29T23:56:52.156Z,2022-10-03T19:11:18.536Z,,,,,TRUE,FALSE,,[],,1,2000,2000,0,,[],[],"[{""_id"":""62bce6c457278a001de22727"",""userId"":""62bce6c457278a001de22726"",""role"":""OWNER"",""email"":""Redwanfaisal@gmail.com"",""created_at"":""2022-06-29T23:56:52.155Z"",""updated_at"":""2022-06-29T23:56:52.155Z""}]"
22,FALSE,New Business ,New Business1656580301695,,,,None,,2022-06-30T09:11:42.101Z,2022-10-03T19:11:19.032Z,,,,,FALSE,FALSE,,[],,1,2000,2000,0,,[],[],"[{""_id"":""62bd68ce57278a001de2f2b7"",""userId"":""62bd68ce57278a001de2f2b6"",""role"":""OWNER"",""email"":""info@boonus.app"",""created_at"":""2022-06-30T09:11:42.100Z"",""updated_at"":""2022-06-30T09:11:42.100Z""}]"
23,TRUE,New Business ,New Business1656586477795,,,,None,,2022-06-30T10:54:38.184Z,2022-10-03T19:11:19.568Z,,,,,TRUE,FALSE,,[],,1,2000,2000,0,,[],[],"[{""_id"":""62bd80ee57278a001de459a6"",""userId"":""62bd80ee57278a001de459a5"",""role"":""OWNER"",""email"":""aaabat@hotmail.com"",""created_at"":""2022-06-30T10:54:38.182Z"",""updated_at"":""2022-06-30T10:54:38.182Z""}]"
24,TRUE,New Business ,New Business1656772751598,,,,None,,2022-07-02T14:39:11.965Z,2022-10-03T19:11:20.615Z,,,,,TRUE,FALSE,,[],,1,2000,2000,0,,[],[],"[{""_id"":""62c0588f57278a001de924c3"",""userId"":""62c0588f57278a001de924c2"",""role"":""OWNER"",""email"":""mma@lafontaine.com.sa"",""created_at"":""2022-07-02T14:39:11.963Z"",""updated_at"":""2022-07-02T14:39:11.963Z""}]"
25,TRUE,New Business ,New Business1657149424192,,,,None,,2022-07-06T23:17:04.566Z,2022-10-03T19:11:22.114Z,,,,,TRUE,FALSE,,[],,1,2000,2000,0,,[],[],"[{""_id"":""62c617f057278a001df24d57"",""userId"":""62c617f057278a001df24d56"",""role"":""OWNER"",""email"":""turkialkhaldi6@gmail.com"",""created_at"":""2022-07-06T23:17:04.564Z"",""updated_at"":""2022-08-24T12:47:33.745Z""}]"
26,TRUE,New Business ,New Business1657152551012,,,,None,,2022-07-07T00:09:11.374Z,2022-10-03T19:11:22.615Z,,,,,TRUE,FALSE,,[],,1,2000,2000,0,,[],[],"[{""_id"":""62c6242757278a001df24ead"",""userId"":""62c6242757278a001df24eac"",""role"":""OWNER"",""email"":""delete_TurkiAlkhaldi6@gmail.com"",""created_at"":""2022-07-07T00:09:11.372Z"",""updated_at"":""2022-08-24T14:04:35.320Z""}]"
27,TRUE,New Business ,New Business1657799977375,,,,None,,2022-07-14T11:59:37.744Z,2022-10-03T19:11:23.117Z,,,,,TRUE,FALSE,,[],,1,2000,2000,0,,[],[],"[{""_id"":""62d0052957278a001d02ab7a"",""userId"":""62d0052957278a001d02ab79"",""role"":""OWNER"",""email"":""n7n7-mido@hotmail.com"",""created_at"":""2022-07-14T11:59:37.742Z"",""updated_at"":""2022-07-14T11:59:37.742Z""}]"
28,TRUE,New Business ,New Business1658654627106,,,,None,,2022-07-24T09:23:47.476Z,2022-10-03T19:11:25.130Z,,,,,TRUE,FALSE,,[],,1,2000,2000,0,,[],[],"[{""_id"":""62dd0fa3916e59001d235908"",""userId"":""62dd0fa3916e59001d235907"",""role"":""OWNER"",""email"":""delete_obayfahad@hotmail.com"",""created_at"":""2022-07-24T09:23:47.474Z"",""updated_at"":""2022-09-12T11:17:59.081Z""}]"
29,TRUE,New Business ,New Business1659442771337,,,,None,,2022-08-02T12:19:31.745Z,2022-10-03T19:11:28.689Z,,,,,TRUE,FALSE,,[],,1,2000,2000,0,,"[{""active"":false,""_id"":""62ea68442f6050001d1678db"",""integrationName"":""FOODICS"",""activationDate"":""2022-08-03T12:21:24.868Z""}]",[],"[{""_id"":""62e916532f6050001d12df26"",""userId"":""62e916532f6050001d12df25"",""role"":""OWNER"",""email"":""delete_saad.alghamdi.lsv@gmail.com"",""created_at"":""2022-08-02T12:19:31.744Z"",""updated_at"":""2022-08-24T13:26:43.693Z""}]"
30,TRUE,New Business ,New Business1660210144865,,,,None,,2022-08-11T09:29:05.221Z,2022-10-03T19:11:33.688Z,,,,,TRUE,FALSE,,[],,1,2000,2000,0,,[],[],"[{""_id"":""62f4cbe12f6050001d350501"",""userId"":""62f4cbe12f6050001d350500"",""role"":""OWNER"",""email"":""mohannad.palace@gmail.com"",""created_at"":""2022-08-11T09:29:05.219Z"",""updated_at"":""2022-08-11T09:29:05.219Z""}]"
31,TRUE,New Business ,New Business1660215379497,,,,None,,2022-08-11T10:56:19.878Z,2022-10-03T19:11:34.191Z,,,,,TRUE,FALSE,,[],,1,2000,2000,0,,[],[],"[{""_id"":""62f4e0532f6050001d35400a"",""userId"":""62f4e0532f6050001d354009"",""role"":""OWNER"",""email"":""rixal71727@yubua.com"",""created_at"":""2022-08-11T10:56:19.876Z"",""updated_at"":""2022-08-24T14:54:11.627Z""}]"
32,TRUE,New Business ,New Business1660464372099,,,,None,,2022-08-14T08:06:12.475Z,2022-10-03T19:11:35.213Z,,,,,TRUE,FALSE,,[],,1,2000,2000,0,,[],[],"[{""_id"":""62f8acf42f6050001d3f641f"",""userId"":""62f8acf42f6050001d3f641e"",""role"":""OWNER"",""email"":""boonus-cs@resal.me"",""created_at"":""2022-08-14T08:06:12.474Z"",""updated_at"":""2022-08-14T08:06:12.474Z""}]"
33,TRUE,New Business ,New Business1660466539405,,,,None,,2022-08-14T08:42:19.774Z,2022-10-03T19:11:36.829Z,,,,,TRUE,FALSE,,[],,1,2000,2000,0,,[],[],"[{""_id"":""62f8b56b2f6050001d3f833b"",""userId"":""62f8b56b2f6050001d3f833a"",""role"":""OWNER"",""email"":""Nightsindia@outlook.com"",""created_at"":""2022-08-14T08:42:19.772Z"",""updated_at"":""2022-08-14T08:42:19.772Z""}]"
34,TRUE,New Business ,New Business1660467151647,,,,None,,2022-08-14T08:52:32.037Z,2022-10-03T19:11:37.334Z,,,,,TRUE,FALSE,,[],,1,2000,2000,0,,[],[],"[{""_id"":""62f8b7d02f6050001d3f8bf8"",""userId"":""62f8b7d02f6050001d3f8bf7"",""role"":""OWNER"",""email"":""Nightsindiaa@outlook.com"",""created_at"":""2022-08-14T08:52:32.035Z"",""updated_at"":""2022-08-14T08:52:32.035Z""}]"
35,TRUE,New Business ,New Business1660483031446,,,,None,,2022-08-14T13:17:11.969Z,2022-10-03T19:11:37.832Z,,,,,TRUE,FALSE,,[],,1,2000,2000,0,,[],[],"[{""_id"":""62f8f5d72f6050001d4093a1"",""userId"":""62f8f5d72f6050001d4093a0"",""role"":""OWNER"",""email"":""nightsindiaa@outlook.com"",""created_at"":""2022-08-14T13:17:11.968Z"",""updated_at"":""2022-08-14T13:17:11.968Z""}]"
36,TRUE,New Business ,New Business1660721947008,,,,None,,2022-08-17T07:39:07.366Z,2022-10-03T19:11:40.866Z,,,,,TRUE,FALSE,,[],,1,2000,2000,0,,[],[],"[{""_id"":""62fc9b1b2f6050001d4b4aa3"",""userId"":""62fc9b1b2f6050001d4b4aa2"",""role"":""OWNER"",""email"":""Dians@outlook.com"",""created_at"":""2022-08-17T07:39:07.365Z"",""updated_at"":""2022-08-17T07:39:07.365Z""}]"
37,TRUE,New Business ,New Business1661020277707,,,,None,,2022-08-20T18:31:18.121Z,2022-10-03T19:11:41.395Z,,,,,TRUE,FALSE,,[],,1,2000,2000,0,,[],[],"[{""_id"":""630128762f6050001d5a8f39"",""userId"":""630128762f6050001d5a8f38"",""role"":""OWNER"",""email"":""mrrr.raheem8555@gmail.com"",""created_at"":""2022-08-20T18:31:18.119Z"",""updated_at"":""2022-08-20T18:31:18.119Z""}]"
38,TRUE,New Business ,New Business1661381083639,,,,None,,2022-08-24T22:44:44.029Z,2022-10-03T19:11:42.886Z,,,,,TRUE,FALSE,,[],,1,2000,2000,0,,[],[],"[{""_id"":""6306a9dc2f6050001d6d14c3"",""userId"":""6306a9dc2f6050001d6d14c2"",""role"":""OWNER"",""email"":""lufei2030@hotmail.com"",""created_at"":""2022-08-24T22:44:44.028Z"",""updated_at"":""2022-08-24T22:44:44.028Z""}]"
39,TRUE,New Business ,New Business1661422970010,,,,None,,2022-08-25T10:22:50.457Z,2022-10-03T19:11:43.380Z,,,,,TRUE,FALSE,,[],,1,2000,2000,0,,[],[],"[{""_id"":""63074d7ac7f269001fcdd080"",""userId"":""63074d7ac7f269001fcdd07f"",""role"":""OWNER"",""email"":""hlayel2030@gmail.com"",""created_at"":""2022-08-25T10:22:50.456Z"",""updated_at"":""2022-08-25T10:22:50.456Z""}]"
40,TRUE,New Business ,New Business1662027164961,,,,None,,2022-09-01T10:12:45.334Z,2022-10-03T19:11:44.840Z,,,,,TRUE,FALSE,,[],,1,2000,2000,0,,[],[],"[{""_id"":""6310859dc7f269001ff33272"",""userId"":""6310859dc7f269001ff33271"",""role"":""OWNER"",""email"":""ahmed_gsa@gmail.com"",""created_at"":""2022-09-01T10:12:45.333Z"",""updated_at"":""2022-09-01T10:12:45.333Z""}]"
41,TRUE,New Business ,New Business1662666922034,,,,None,,2022-09-08T19:55:22.530Z,2022-10-03T19:11:48.778Z,,,,,TRUE,FALSE,,[],,1,2000,2000,0,,[],[],"[{""_id"":""631a48aac7f269001f330056"",""userId"":""631a48aac7f269001f330055"",""role"":""OWNER"",""email"":""e.x.thamer@gmail.com"",""created_at"":""2022-09-08T19:55:22.528Z"",""updated_at"":""2022-09-08T19:55:22.528Z""}]"
42,TRUE,New Business ,New Business1662962210608,,,,None,,2022-09-12T05:56:50.969Z,2022-10-03T19:11:49.786Z,,,,,TRUE,FALSE,,[],,1,2000,2000,0,,[],[],"[{""_id"":""631eca221a44f6001f8268e7"",""userId"":""631eca221a44f6001f8268e6"",""role"":""OWNER"",""email"":""dayose1524@nicoimg.com"",""created_at"":""2022-09-12T05:56:50.967Z"",""updated_at"":""2022-09-12T05:56:50.967Z""}]"
43,TRUE,New Business ,New Business1663146398536,,,,None,,2022-09-14T09:06:38.932Z,2022-10-03T19:11:51.779Z,,"A supermarket that works 24 hours, continuous offers and competitive prices. We strive to be a distinguished brand in sales at the lowest price.",,,TRUE,FALSE,,[],سوبر ماركت نعمل ٢٤ ساعه ،، عروض مستمره واسعار منافسة نسعى لنكون علامة تجارية فارقة في المبيعات بالسعر الاقل .  ,1,2000,2000,0,,[],[],"[{""_id"":""6321999eb92ed5001f3ce03d"",""userId"":""6321999eb92ed5001f3ce03c"",""role"":""OWNER"",""email"":""aljaberi2050@gmail.com"",""created_at"":""2022-09-14T09:06:38.930Z"",""updated_at"":""2022-09-14T09:06:38.930Z""}]"
44,TRUE,New Business ,New Business1663575795439,,,,None,,2022-09-19T08:23:15.805Z,2022-10-03T19:11:55.359Z,,,,,TRUE,FALSE,,[],,1,2000,2000,0,,[],[],"[{""_id"":""632826f3b92ed5001f703c8a"",""userId"":""632826f3b92ed5001f703c89"",""role"":""OWNER"",""email"":""tariq@greensystemspower.com"",""created_at"":""2022-09-19T08:23:15.804Z"",""updated_at"":""2022-09-19T08:23:15.804Z""}]"
45,FALSE,New Business ,New Business1663587746433,,,,None,,2022-09-19T11:42:26.819Z,2022-12-05T10:57:22.411Z,,,,,FALSE,FALSE,,[],,1,2000,12000,0,,[],[],"[{""_id"":""632855a2b92ed5001f7172f9"",""userId"":""632855a2b92ed5001f7172f8"",""role"":""OWNER"",""email"":""mabukhadejah@gmail.com"",""created_at"":""2022-09-19T11:42:26.817Z"",""updated_at"":""2022-09-19T11:42:26.817Z""}]"
46,TRUE,New Business ,New Business1664190296000,,,,None,,2022-09-26T11:04:56.488Z,2022-10-30T07:35:06.354Z,,,,,TRUE,FALSE,,[],,1,2000,2000,0,,[],[],"[{""_id"":""63318758b92ed5001faeef08"",""userId"":""63318758b92ed5001faeef07"",""role"":""OWNER"",""email"":""info@tossksa.com"",""created_at"":""2022-09-26T11:04:56.487Z"",""updated_at"":""2022-09-26T11:04:56.487Z""}]"
47,FALSE,New Business ,New Business1665421416447,,,,None,,2022-10-10T17:03:36.814Z,2022-10-10T17:03:36.814Z,,,,,FALSE,FALSE,,[],,1,2000,0,0,,[],[],"[{""_id"":""6344506816d2f7001fd9ef38"",""userId"":""6344506816d2f7001fd9ef37"",""role"":""OWNER"",""email"":""mrarh.coffee@gmail.com"",""created_at"":""2022-10-10T17:03:36.813Z"",""updated_at"":""2022-10-10T17:03:36.813Z""}]"
48,TRUE,New Business ,New Business1670185599874,,,,None,,2022-12-04T20:26:40.261Z,2022-12-11T08:42:03.025Z,,,,,TRUE,FALSE,,[],,1,2000,0,0,,[],"[{""sourceId"":null,""reference"":null,""main"":false,""active"":false,""_id"":""6395973cd09525001d31971f"",""lat"":""21.499620672198333"",""lng"":""39.163798732757584"",""workingHours"":{""sunday"":{""working"":true,""_id"":""6395973cd09525001d319720"",""shifts"":[{""_id"":""6395973cd09525001d319721"",""from"":""08:00"",""to"":""17:00""}]},""monday"":{""working"":true,""_id"":""6395973cd09525001d319722"",""shifts"":[{""_id"":""6395973cd09525001d319723"",""from"":""08:00"",""to"":""17:00""}]},""tuesday"":{""working"":true,""_id"":""6395973cd09525001d319724"",""shifts"":[{""_id"":""6395973cd09525001d319725"",""from"":""08:00"",""to"":""17:00""}]},""wednesday"":{""working"":true,""_id"":""6395973cd09525001d319726"",""shifts"":[{""_id"":""6395973cd09525001d319727"",""from"":""08:00"",""to"":""17:00""}]},""thursday"":{""working"":true,""_id"":""6395973cd09525001d319728"",""shifts"":[{""_id"":""6395973cd09525001d319729"",""from"":""08:00"",""to"":""17:00""}]},""friday"":{""working"":true,""_id"":""6395973cd09525001d31972a"",""shifts"":[{""_id"":""6395973cd09525001d31972b"",""from"":""08:00"",""to"":""17:00""}]},""saturday"":{""working"":true,""_id"":""6395973cd09525001d31972c"",""shifts"":[{""_id"":""6395973cd09525001d31972d"",""from"":""08:00"",""to"":""17:00""}]}},""arabicName"":""فرع الحمراء"",""name"":""فرع الحمراء"",""phone"":{""number"":""541823409"",""countryCode"":""966""},""updated_at"":""2022-12-11T08:39:24.459Z"",""created_at"":""2022-12-11T08:39:24.459Z""}]","[{""_id"":""638d0280d09525001df5e9b7"",""userId"":""638d0280d09525001df5e9b6"",""role"":""OWNER"",""email"":""nh652300@gmail.com"",""created_at"":""2022-12-04T20:26:40.259Z"",""updated_at"":""2022-12-11T08:42:03.024Z"",""branchId"":""6395973cd09525001d31971f""}]"
49,FALSE,New Business ,New Business1670840275455,,,,None,,2022-12-12T10:17:55.822Z,2022-12-14T11:36:16.360Z,,,,,FALSE,FALSE,,[],,1,2000,0,0,63398d370d0a90001ffc6367,[],[],"[{""_id"":""6396ffd3d09525001d425b7e"",""userId"":""6396ffd3d09525001d425b7d"",""role"":""OWNER"",""email"":""anas.adsany@gmail.com"",""created_at"":""2022-12-12T10:17:55.821Z"",""updated_at"":""2022-12-12T10:17:55.821Z""}]"
50,FALSE,New Business ,New Business1671370729560,,,,None,,2022-12-18T13:38:49.960Z,2022-12-18T13:38:49.960Z,,,,,FALSE,FALSE,,[],,1,2000,0,0,63398b8a0d0a90001ffc520f,[],[],"[{""_id"":""639f17e938086c001cfee520"",""userId"":""639f17e938086c001cfee51f"",""role"":""OWNER"",""email"":""amanah.jed@gmail.com"",""created_at"":""2022-12-18T13:38:49.959Z"",""updated_at"":""2022-12-18T13:38:49.959Z""}]"
51,TRUE,New Business ,New Business1671614656848,,,,None,,2022-12-21T09:24:17.215Z,2023-02-28T10:20:22.863Z,,,,,TRUE,FALSE,,[],,1,2000,0,0,63398b8a0d0a90001ffc520f,[],[],"[{""_id"":""63a2d0c138086c001c4fe3ba"",""userId"":""63a2d0c138086c001c4fe3b9"",""role"":""OWNER"",""email"":""hamzhxx@gmail.com"",""created_at"":""2022-12-21T09:24:17.213Z"",""updated_at"":""2022-12-21T09:24:17.213Z""}]"
52,FALSE,New Business ,New Business1674114426218,,,,None,,2023-01-19T07:47:06.602Z,2023-02-28T10:15:29.292Z,,,,,FALSE,FALSE,,[],,1,2000,0,0,63398b8a0d0a90001ffc520f,[],[],"[{""_id"":""63c8f57a911a70001d861b39"",""userId"":""63c8f57a911a70001d861b38"",""role"":""OWNER"",""email"":""ismail@resal.me"",""created_at"":""2023-01-19T07:47:06.601Z"",""updated_at"":""2023-01-19T07:47:06.601Z""}]"
53,FALSE,New Business ,New Business1674397325009,,,,None,,2023-01-22T14:22:05.540Z,2023-02-28T10:15:14.130Z,,,,,FALSE,FALSE,,[],,1,2000,0,0,63398b8a0d0a90001ffc520f,[],[],"[{""_id"":""63cd468d911a70001d2e3a4b"",""userId"":""63cd468d911a70001d2e3a4a"",""role"":""OWNER"",""email"":""khaled.lhazza@gmail.com"",""created_at"":""2023-01-22T14:22:05.535Z"",""updated_at"":""2023-01-22T14:22:05.535Z""}]"
54,FALSE,New Business ,New Business1675610836489,,,,None,,2023-02-05T15:27:16.910Z,2023-02-07T13:09:05.858Z,,,,,FALSE,TRUE,,[],,1,2000,0,0,63398b8a0d0a90001ffc520f,[],[],"[{""_id"":""63dfcad41eb9f8001dc114d9"",""userId"":""63dfcad41eb9f8001dc114d8"",""role"":""OWNER"",""email"":""cocasarif@gmail.com"",""created_at"":""2023-02-05T15:27:16.907Z"",""updated_at"":""2023-02-05T15:27:16.907Z""}]"
55,FALSE,New Business ,New Business1676976868536,,,,None,,2023-02-21T10:54:28.937Z,2023-02-28T08:12:56.553Z,,,,,FALSE,FALSE,,[],,1,2000,0,0,63398b8a0d0a90001ffc520f,[],[],"[{""_id"":""63f4a2e4a66940001d8f7f10"",""userId"":""63f4a2e4a66940001d8f7f0f"",""role"":""OWNER"",""email"":""test@tesof.me"",""created_at"":""2023-02-21T10:54:28.936Z"",""updated_at"":""2023-02-21T10:54:28.936Z""}]"
56,TRUE,New Business ,New Business1677136390782,,,,None,,2023-02-23T07:13:11.216Z,2023-02-23T12:37:49.125Z,,,,,TRUE,FALSE,,[],,1,2000,0,0,63398e6c0d0a90001ffc6a12,[],[],"[{""_id"":""63f71207931652001f366914"",""userId"":""63f71207931652001f366913"",""role"":""OWNER"",""email"":""muhannad@resal.me"",""created_at"":""2023-02-23T07:13:11.215Z"",""updated_at"":""2023-02-23T07:13:11.215Z""}]"
57,FALSE,New Business ,New Business1678020604611,,,,None,,2023-03-05T12:50:04.995Z,2023-03-05T18:22:30.827Z,,,,,FALSE,FALSE,,[],,1,2000,0,0,63398b8a0d0a90001ffc520f,[],[],"[{""_id"":""64048ffcdceb6e001e0f3b08"",""userId"":""64048ffcdceb6e001e0f3b07"",""role"":""OWNER"",""email"":""mohammed.sallam.1993@hotmail.com"",""created_at"":""2023-03-05T12:50:04.993Z"",""updated_at"":""2023-03-05T12:50:04.993Z""}]"
58,TRUE,New Business ,New Business1679924246559,,,,None,,2023-03-27T13:37:26.915Z,2023-03-27T15:59:44.254Z,,,,,TRUE,FALSE,,[],,1,2000,0,0,63398b8a0d0a90001ffc520f,[],[],"[{""_id"":""64219c1693e634001d68b1ac"",""userId"":""64219c1693e634001d68b1ab"",""role"":""OWNER"",""email"":""support@poleer-carservices.com"",""created_at"":""2023-03-27T13:37:26.914Z"",""updated_at"":""2023-03-27T13:37:26.914Z""}]"
59,TRUE,New Business ,New Business1684152460454,,,,None,,2023-05-15T12:07:40.818Z,2023-05-15T12:08:04.175Z,,,,,TRUE,FALSE,,[],,1,2000,0,0,63398b8a0d0a90001ffc520f,[],[],"[{""_id"":""6462208c111839001d500cd1"",""userId"":""6462208c111839001d500cd0"",""role"":""OWNER"",""email"":""maaqid@gmail.com"",""created_at"":""2023-05-15T12:07:40.817Z"",""updated_at"":""2023-05-15T12:07:40.817Z""}]"
60,FALSE,New Business ,New Business1686646869324,,,,None,,2023-06-13T09:01:09.691Z,2023-06-13T09:01:09.691Z,,,,,FALSE,FALSE,,[],,1,2000,0,0,63398b8a0d0a90001ffc520f,[],[],"[{""_id"":""64883055fb1ca2001fbf4a79"",""userId"":""64883055fb1ca2001fbf4a78"",""role"":""OWNER"",""email"":""aybatalhejazjd@gmail.com"",""created_at"":""2023-06-13T09:01:09.690Z"",""updated_at"":""2023-06-13T09:01:09.690Z""}]"
61,TRUE,New Business ,New Business1686823397942,,,,None,,2023-06-15T10:03:18.309Z,2023-06-15T14:35:06.984Z,,,,,TRUE,FALSE,,[],,1,10000,0,0,63398e6c0d0a90001ffc6a12,[],[],"[{""_id"":""648ae1e6fb1ca2001f267e59"",""userId"":""648ae1e6fb1ca2001f267e58"",""role"":""OWNER"",""email"":""abofatma126@gmail.coma"",""created_at"":""2023-06-15T10:03:18.308Z"",""updated_at"":""2023-06-15T10:03:18.308Z""}]"
62,TRUE,New Business ,New Business1688542797397,,,,None,,2023-07-05T07:39:57.761Z,2023-07-05T08:13:11.548Z,,,,,TRUE,FALSE,,[],,3,10000,0,0,63398f0b0d0a90001ffc6b5c,[],[],"[{""_id"":""64a51e4dc9f8ca001de34f47"",""userId"":""64a51e4dc9f8ca001de34f46"",""role"":""OWNER"",""email"":""oia_beach@hotmail.com"",""created_at"":""2023-07-05T07:39:57.760Z"",""updated_at"":""2023-07-05T07:39:57.760Z""}]"
63,TRUE,New Business ,New Business1690163661536,,,,None,,2023-07-24T01:54:21.961Z,2023-07-24T01:57:41.678Z,,,,,TRUE,FALSE,,[],,1,2000,0,0,63398b8a0d0a90001ffc520f,[],[],"[{""_id"":""64bdd9cd53090f001dc99092"",""userId"":""64bdd9cd53090f001dc99091"",""role"":""OWNER"",""email"":""abdullah@hylth.com"",""created_at"":""2023-07-24T01:54:21.957Z"",""updated_at"":""2023-07-24T01:54:21.957Z""}]"
64,FALSE,New Business ,New Business1691311539112,,,,None,,2023-08-06T08:45:39.477Z,2023-08-06T08:45:39.477Z,,,,,FALSE,FALSE,,[],,1,2000,0,0,63398b8a0d0a90001ffc520f,[],[],"[{""_id"":""64cf5db31190b5001d9834c5"",""userId"":""64cf5db31190b5001d9834c4"",""role"":""OWNER"",""email"":""mohammad.madkali@gmail.com"",""created_at"":""2023-08-06T08:45:39.475Z"",""updated_at"":""2023-08-06T08:45:39.475Z""}]"
65,TRUE,New Business ,New Business1691320786139,,,,None,,2023-08-06T11:19:46.525Z,2023-08-06T11:22:41.362Z,,,,,TRUE,FALSE,,[],,1,2000,0,0,63398b8a0d0a90001ffc520f,[],[],"[{""_id"":""64cf81d21190b5001d9ca990"",""userId"":""64cf81d21190b5001d9ca98f"",""role"":""OWNER"",""email"":""warrior259@gmail.com"",""created_at"":""2023-08-06T11:19:46.524Z"",""updated_at"":""2023-08-06T11:19:46.524Z""}]"
66,TRUE,New Business ,New Business1691409611442,,,,None,,2023-08-07T12:00:11.838Z,2023-08-07T12:01:09.232Z,,,,,TRUE,FALSE,,[],,1,2000,0,0,63398b8a0d0a90001ffc520f,[],[],"[{""_id"":""64d0dccb9375c6001d50aca9"",""userId"":""64d0dccb9375c6001d50aca8"",""role"":""OWNER"",""email"":""robotgizan@gmail.com"",""created_at"":""2023-08-07T12:00:11.836Z"",""updated_at"":""2023-08-07T12:00:11.836Z""}]"
67,FALSE,New Business ,New Business1692007882917,,,,None,,2023-08-14T10:11:23.347Z,2023-08-14T10:11:23.347Z,,,,,FALSE,FALSE,,[],,1,2000,0,0,63398b8a0d0a90001ffc520f,[],[],"[{""_id"":""64d9fdcb0645fc001dbad044"",""userId"":""64d9fdcb0645fc001dbad043"",""role"":""OWNER"",""email"":""ma5111@hotmail.com"",""created_at"":""2023-08-14T10:11:23.345Z"",""updated_at"":""2023-08-14T10:11:23.345Z""}]"
68,FALSE,New Business ,New Business1692209612676,,,,None,,2023-08-16T18:13:33.159Z,2023-08-16T18:13:33.159Z,,,,,FALSE,FALSE,,[],,1,2000,0,0,63398b8a0d0a90001ffc520f,[],[],"[{""_id"":""64dd11cd0645fc001d391d98"",""userId"":""64dd11cd0645fc001d391d97"",""role"":""OWNER"",""email"":""ayom7605@gmail.com"",""created_at"":""2023-08-16T18:13:33.158Z"",""updated_at"":""2023-08-16T18:13:33.158Z""}]"
69,FALSE,New Business ,New Business1693152016426,,,,None,,2023-08-27T16:00:17.117Z,2024-08-26T10:19:05.846Z,,,,,FALSE,TRUE,,[],,1,2000,0,0,63398b8a0d0a90001ffc520f,[],[],"[{""_id"":""64eb7311a25b14001d954b12"",""userId"":""64eb7311a25b14001d954b11"",""role"":""OWNER"",""email"":""Alharthi170@icloud.com"",""created_at"":""2023-08-27T16:00:17.115Z"",""updated_at"":""2024-08-26T10:19:05.846Z""}]"
70,TRUE,New Business ,New Business1693227339983,,,,None,,2023-08-28T12:55:40.371Z,2023-08-28T12:56:27.139Z,,,,,TRUE,FALSE,,[],,1,2000,0,0,63398b8a0d0a90001ffc520f,[],[],"[{""_id"":""64ec994c91fe72001db4304a"",""userId"":""64ec994c91fe72001db43049"",""role"":""OWNER"",""email"":""yozx1720@gmail.com"",""created_at"":""2023-08-28T12:55:40.369Z"",""updated_at"":""2023-08-28T12:55:40.369Z""}]"
71,TRUE,New Business ,New Business1693809357518,,,,None,,2023-09-04T06:35:57.893Z,2023-09-06T11:16:38.218Z,,,,,TRUE,FALSE,,[],,1,10000,0,0,63398e6c0d0a90001ffc6a12,[],[],"[{""_id"":""64f57acd64a384001d3c048c"",""userId"":""64f57acd64a384001d3c048b"",""role"":""OWNER"",""email"":""400pizza@gmali.com"",""created_at"":""2023-09-04T06:35:57.892Z"",""updated_at"":""2023-09-04T06:35:57.892Z""}]"
72,FALSE,New Business ,New Business1694078962497,,,,None,,2023-09-07T09:29:22.901Z,2023-09-07T09:29:22.901Z,,,,,FALSE,FALSE,,[],,1,2000,0,0,63398b8a0d0a90001ffc520f,[],[],"[{""_id"":""64f997f2a50967001d60ab0e"",""userId"":""64f997f2a50967001d60ab0d"",""role"":""OWNER"",""email"":""abody3113733@gmil.com"",""created_at"":""2023-09-07T09:29:22.899Z"",""updated_at"":""2023-09-07T09:29:22.899Z""}]"
73,TRUE,New Business ,New Business1694518307903,,,,None,,2023-09-12T11:31:48.267Z,2023-09-12T11:33:11.425Z,,,,,TRUE,FALSE,,[],,1,2000,0,0,63398b8a0d0a90001ffc520f,[],[],"[{""_id"":""65004c24773377001df1a181"",""userId"":""65004c24773377001df1a180"",""role"":""OWNER"",""email"":""mohanad@rawnah.com"",""created_at"":""2023-09-12T11:31:48.265Z"",""updated_at"":""2023-09-12T11:31:48.265Z""}]"
74,FALSE,New Business ,New Business1695646240353,,,,None,,2023-09-25T12:50:40.741Z,2023-09-25T12:50:40.741Z,,,,,FALSE,FALSE,,[],,1,2000,0,0,63398b8a0d0a90001ffc520f,[],[],"[{""_id"":""651182209339d7001e055bc8"",""userId"":""651182209339d7001e055bc7"",""role"":""OWNER"",""email"":""hashim.a@gmail.com"",""created_at"":""2023-09-25T12:50:40.739Z"",""updated_at"":""2023-09-25T12:50:40.739Z""}]"
75,FALSE,New Business ,New Business1696401887640,,,,None,,2023-10-04T06:44:48.091Z,2023-10-04T09:42:37.010Z,,,,,FALSE,FALSE,,[],,1,10000,0,0,63398e6c0d0a90001ffc6a12,[],[],"[{""_id"":""651d09e0ce74cf001e12c41d"",""userId"":""651d09e0ce74cf001e12c41c"",""role"":""OWNER"",""email"":""ahmed@coffeespeciallst.info"",""created_at"":""2023-10-04T06:44:48.090Z"",""updated_at"":""2023-10-04T06:44:48.090Z""}]"
76,TRUE,New Business ,New Business1698228808017,,,,None,,2023-10-25T10:13:28.407Z,2023-10-25T10:13:49.239Z,,,,,TRUE,FALSE,,[],,1,2000,0,0,63398b8a0d0a90001ffc520f,[],[],"[{""_id"":""6538ea482aafb4001dec4d06"",""userId"":""6538ea482aafb4001dec4d05"",""role"":""OWNER"",""email"":""mosa6066@gmail.com"",""created_at"":""2023-10-25T10:13:28.405Z"",""updated_at"":""2023-10-25T10:13:28.405Z""}]"
77,FALSE,New Business ,New Business1698252762870,,,,None,,2023-10-25T16:52:43.275Z,2023-10-25T16:52:43.275Z,,,,,FALSE,FALSE,,[],,1,2000,0,0,63398b8a0d0a90001ffc520f,[],[],"[{""_id"":""653947db2aafb4001dfee8d0"",""userId"":""653947db2aafb4001dfee8cf"",""role"":""OWNER"",""email"":""salmanoqayli@gmail.com"",""created_at"":""2023-10-25T16:52:43.275Z"",""updated_at"":""2023-10-25T16:52:43.275Z""}]"
78,TRUE,New Business ,New Business1698918247046,,,,None,,2023-11-02T09:44:07.421Z,2023-11-02T09:52:35.242Z,,,,,TRUE,FALSE,,[],,1,2000,0,0,63398b8a0d0a90001ffc520f,[],[],"[{""_id"":""65436f6754d5f7001dffa5b8"",""userId"":""65436f6754d5f7001dffa5b7"",""role"":""OWNER"",""email"":""raminrakan55@gmail.com"",""created_at"":""2023-11-02T09:44:07.420Z"",""updated_at"":""2023-11-02T09:44:07.420Z""}]"
79,TRUE,New Business ,New Business1700082212469,,,,None,,2023-11-15T21:03:32.844Z,2023-11-15T21:06:36.692Z,,,,,TRUE,FALSE,,[],,1,2000,0,0,63398b8a0d0a90001ffc520f,[],[],"[{""_id"":""6555322454d5f7001d631c42"",""userId"":""6555322454d5f7001d631c41"",""role"":""OWNER"",""email"":""abo.roz.056211@gmail.com"",""created_at"":""2023-11-15T21:03:32.843Z"",""updated_at"":""2023-11-15T21:03:32.843Z""}]"
80,TRUE,New Business ,New Business1700832522654,,,,None,,2023-11-24T13:28:43.039Z,2023-11-26T06:58:31.476Z,,,,,TRUE,FALSE,,[],,1,2000,0,0,63398b8a0d0a90001ffc520f,[],[],"[{""_id"":""6560a50bc068a2001d8d360b"",""userId"":""6560a50bc068a2001d8d360a"",""role"":""OWNER"",""email"":""dyounes110@gmail.com"",""created_at"":""2023-11-24T13:28:43.038Z"",""updated_at"":""2023-11-24T13:28:43.038Z""}]"
81,TRUE,New Business ,New Business1701336614312,الوان الشاي,has other active acc: 64904590fb1ca2001fead992,,cafes,,2023-11-30T09:30:14.722Z,2023-12-03T09:31:25.942Z,https://prod-boonus-general.s3.ap-south-1.amazonaws.com/logo_65685626e2b620001ea75126_cBdCBA6EBd.jpeg,,https://prod-boonus-general.s3.ap-south-1.amazonaws.com/catalogue_65685626e2b620001ea75126_hyvJXDse6v.pdf,,TRUE,FALSE,,[],,1,10000,0,0,6537adb22aafb4001db83399,"[{""active"":true,""_id"":""656bc30fe2b620001eec8238"",""integrationName"":""FOODICS"",""activationDate"":""2023-12-03T00:27:43.319Z""}]","[{""sourceId"":null,""reference"":null,""main"":false,""active"":true,""_id"":""6568994de2b620001eae5550"",""lat"":""21.5"",""lng"":""39.17"",""workingHours"":{""sunday"":{""working"":true,""_id"":""6568994de2b620001eae5551"",""shifts"":[{""_id"":""6568994de2b620001eae5552"",""from"":""04:00"",""to"":""04:00""}]},""monday"":{""working"":true,""_id"":""6568994de2b620001eae5553"",""shifts"":[{""_id"":""6568994de2b620001eae5554"",""from"":""04:00"",""to"":""04:00""}]},""tuesday"":{""working"":true,""_id"":""6568994de2b620001eae5555"",""shifts"":[{""_id"":""6568994de2b620001eae5556"",""from"":""04:00"",""to"":""04:00""}]},""wednesday"":{""working"":true,""_id"":""6568994de2b620001eae5557"",""shifts"":[{""_id"":""6568994de2b620001eae5558"",""from"":""04:00"",""to"":""04:00""}]},""thursday"":{""working"":true,""_id"":""6568994de2b620001eae5559"",""shifts"":[{""_id"":""6568994de2b620001eae555a"",""from"":""04:00"",""to"":""04:00""}]},""friday"":{""working"":true,""_id"":""6568994de2b620001eae555b"",""shifts"":[{""_id"":""6568994de2b620001eae555c"",""from"":""04:00"",""to"":""04:00""}]},""saturday"":{""working"":true,""_id"":""6568994de2b620001eae555d"",""shifts"":[{""_id"":""6568994de2b620001eae555e"",""from"":""04:00"",""to"":""04:00""}]}},""arabicName"":""Al kharj"",""name"":""فرع الخرج"",""updated_at"":""2023-12-03T00:24:08.563Z"",""created_at"":""2023-11-30T14:16:45.565Z"",""phone"":{}},{""sourceId"":""9529a240-1dad-4b27-a8ed-8ddfee436f4e"",""reference"":""B01"",""main"":false,""active"":false,""_id"":""656bca90e2b620001eecaf03"",""name"":""فرع العقيق"",""arabicName"":""Alaqiq"",""lat"":""24.787068"",""lng"":""46.61537"",""workingHours"":{""sunday"":{""working"":true,""_id"":""656bca90e2b620001eecaf04"",""shifts"":[{""_id"":""656bca90e2b620001eecaf05"",""from"":""04:00"",""to"":""04:00""}]},""monday"":{""working"":true,""_id"":""656bca90e2b620001eecaf06"",""shifts"":[{""_id"":""656bca90e2b620001eecaf07"",""from"":""04:00"",""to"":""04:00""}]},""tuesday"":{""working"":true,""_id"":""656bca90e2b620001eecaf08"",""shifts"":[{""_id"":""656bca90e2b620001eecaf09"",""from"":""04:00"",""to"":""04:00""}]},""wednesday"":{""working"":true,""_id"":""656bca90e2b620001eecaf0a"",""shifts"":[{""_id"":""656bca90e2b620001eecaf0b"",""from"":""04:00"",""to"":""04:00""}]},""thursday"":{""working"":true,""_id"":""656bca90e2b620001eecaf0c"",""shifts"":[{""_id"":""656bca90e2b620001eecaf0d"",""from"":""04:00"",""to"":""04:00""}]},""friday"":{""working"":true,""_id"":""656bca90e2b620001eecaf0e"",""shifts"":[{""_id"":""656bca90e2b620001eecaf0f"",""from"":""04:00"",""to"":""04:00""}]},""saturday"":{""working"":true,""_id"":""656bca90e2b620001eecaf10"",""shifts"":[{""_id"":""656bca90e2b620001eecaf11"",""from"":""04:00"",""to"":""04:00""}]}},""created_at"":""2023-12-03T00:23:44.947Z"",""updated_at"":""2023-12-03T00:23:44.947Z""},{""sourceId"":""9a62428e-3d82-4bcb-85a0-e53fd2ad720d"",""reference"":""B02"",""main"":false,""active"":false,""_id"":""656bca90e2b620001eecaf12"",""name"":""فرع الخرج"",""arabicName"":null,""lat"":null,""lng"":null,""workingHours"":{""sunday"":{""working"":true,""_id"":""656bca90e2b620001eecaf13"",""shifts"":[{""_id"":""656bca90e2b620001eecaf14"",""from"":""04:00"",""to"":""04:00""}]},""monday"":{""working"":true,""_id"":""656bca90e2b620001eecaf15"",""shifts"":[{""_id"":""656bca90e2b620001eecaf16"",""from"":""04:00"",""to"":""04:00""}]},""tuesday"":{""working"":true,""_id"":""656bca90e2b620001eecaf17"",""shifts"":[{""_id"":""656bca90e2b620001eecaf18"",""from"":""04:00"",""to"":""04:00""}]},""wednesday"":{""working"":true,""_id"":""656bca90e2b620001eecaf19"",""shifts"":[{""_id"":""656bca90e2b620001eecaf1a"",""from"":""04:00"",""to"":""04:00""}]},""thursday"":{""working"":true,""_id"":""656bca90e2b620001eecaf1b"",""shifts"":[{""_id"":""656bca90e2b620001eecaf1c"",""from"":""04:00"",""to"":""04:00""}]},""friday"":{""working"":true,""_id"":""656bca90e2b620001eecaf1d"",""shifts"":[{""_id"":""656bca90e2b620001eecaf1e"",""from"":""04:00"",""to"":""04:00""}]},""saturday"":{""working"":true,""_id"":""656bca90e2b620001eecaf1f"",""shifts"":[{""_id"":""656bca90e2b620001eecaf20"",""from"":""04:00"",""to"":""04:00""}]}},""created_at"":""2023-12-03T00:23:44.947Z"",""updated_at"":""2023-12-03T00:23:44.947Z""},{""sourceId"":""9a7f2aa8-ae2d-4e3f-9c1f-f93f0613b29a"",""reference"":""B03"",""main"":false,""active"":false,""_id"":""656bca90e2b620001eecaf21"",""name"":""فرع عرعر"",""arabicName"":null,""lat"":null,""lng"":null,""workingHours"":{""sunday"":{""working"":true,""_id"":""656bca90e2b620001eecaf22"",""shifts"":[{""_id"":""656bca90e2b620001eecaf23"",""from"":""04:00"",""to"":""04:00""}]},""monday"":{""working"":true,""_id"":""656bca90e2b620001eecaf24"",""shifts"":[{""_id"":""656bca90e2b620001eecaf25"",""from"":""04:00"",""to"":""04:00""}]},""tuesday"":{""working"":true,""_id"":""656bca90e2b620001eecaf26"",""shifts"":[{""_id"":""656bca90e2b620001eecaf27"",""from"":""04:00"",""to"":""04:00""}]},""wednesday"":{""working"":true,""_id"":""656bca90e2b620001eecaf28"",""shifts"":[{""_id"":""656bca90e2b620001eecaf29"",""from"":""04:00"",""to"":""04:00""}]},""thursday"":{""working"":true,""_id"":""656bca90e2b620001eecaf2a"",""shifts"":[{""_id"":""656bca90e2b620001eecaf2b"",""from"":""04:00"",""to"":""04:00""}]},""friday"":{""working"":true,""_id"":""656bca90e2b620001eecaf2c"",""shifts"":[{""_id"":""656bca90e2b620001eecaf2d"",""from"":""04:00"",""to"":""04:00""}]},""saturday"":{""working"":true,""_id"":""656bca90e2b620001eecaf2e"",""shifts"":[{""_id"":""656bca90e2b620001eecaf2f"",""from"":""04:00"",""to"":""04:00""}]}},""created_at"":""2023-12-03T00:23:44.947Z"",""updated_at"":""2023-12-03T00:23:44.947Z""},{""sourceId"":""9a7f2f5f-36fd-4704-8a9a-ac387f82aa2b"",""reference"":""B04"",""main"":false,""active"":false,""_id"":""656bca90e2b620001eecaf30"",""name"":""فرع قرطبة"",""arabicName"":null,""lat"":null,""lng"":null,""workingHours"":{""sunday"":{""working"":true,""_id"":""656bca90e2b620001eecaf31"",""shifts"":[{""_id"":""656bca90e2b620001eecaf32"",""from"":""04:00"",""to"":""04:00""}]},""monday"":{""working"":true,""_id"":""656bca90e2b620001eecaf33"",""shifts"":[{""_id"":""656bca90e2b620001eecaf34"",""from"":""04:00"",""to"":""04:00""}]},""tuesday"":{""working"":true,""_id"":""656bca90e2b620001eecaf35"",""shifts"":[{""_id"":""656bca90e2b620001eecaf36"",""from"":""04:00"",""to"":""04:00""}]},""wednesday"":{""working"":true,""_id"":""656bca90e2b620001eecaf37"",""shifts"":[{""_id"":""656bca90e2b620001eecaf38"",""from"":""04:00"",""to"":""04:00""}]},""thursday"":{""working"":true,""_id"":""656bca90e2b620001eecaf39"",""shifts"":[{""_id"":""656bca90e2b620001eecaf3a"",""from"":""04:00"",""to"":""04:00""}]},""friday"":{""working"":true,""_id"":""656bca90e2b620001eecaf3b"",""shifts"":[{""_id"":""656bca90e2b620001eecaf3c"",""from"":""04:00"",""to"":""04:00""}]},""saturday"":{""working"":true,""_id"":""656bca90e2b620001eecaf3d"",""shifts"":[{""_id"":""656bca90e2b620001eecaf3e"",""from"":""04:00"",""to"":""04:00""}]}},""created_at"":""2023-12-03T00:23:44.947Z"",""updated_at"":""2023-12-03T00:23:44.947Z""},{""sourceId"":""9a7f3002-4a1a-46d5-bf4d-1125128ff821"",""reference"":""B05"",""main"":false,""active"":false,""_id"":""656bca90e2b620001eecaf3f"",""name"":""فرع بوليفارد"",""arabicName"":null,""lat"":null,""lng"":null,""workingHours"":{""sunday"":{""working"":true,""_id"":""656bca90e2b620001eecaf40"",""shifts"":[{""_id"":""656bca90e2b620001eecaf41"",""from"":""04:00"",""to"":""04:00""}]},""monday"":{""working"":true,""_id"":""656bca90e2b620001eecaf42"",""shifts"":[{""_id"":""656bca90e2b620001eecaf43"",""from"":""04:00"",""to"":""04:00""}]},""tuesday"":{""working"":true,""_id"":""656bca90e2b620001eecaf44"",""shifts"":[{""_id"":""656bca90e2b620001eecaf45"",""from"":""04:00"",""to"":""04:00""}]},""wednesday"":{""working"":true,""_id"":""656bca90e2b620001eecaf46"",""shifts"":[{""_id"":""656bca90e2b620001eecaf47"",""from"":""04:00"",""to"":""04:00""}]},""thursday"":{""working"":true,""_id"":""656bca90e2b620001eecaf48"",""shifts"":[{""_id"":""656bca90e2b620001eecaf49"",""from"":""04:00"",""to"":""04:00""}]},""friday"":{""working"":true,""_id"":""656bca90e2b620001eecaf4a"",""shifts"":[{""_id"":""656bca90e2b620001eecaf4b"",""from"":""04:00"",""to"":""04:00""}]},""saturday"":{""working"":true,""_id"":""656bca90e2b620001eecaf4c"",""shifts"":[{""_id"":""656bca90e2b620001eecaf4d"",""from"":""04:00"",""to"":""04:00""}]}},""created_at"":""2023-12-03T00:23:44.947Z"",""updated_at"":""2023-12-03T00:23:44.947Z""}]","[{""_id"":""65685626e2b620001ea75129"",""userId"":""65685626e2b620001ea75128"",""role"":""OWNER"",""email"":""behraa2022@gmail.com"",""created_at"":""2023-11-30T09:30:14.720Z"",""updated_at"":""2023-11-30T09:30:14.720Z""}]"
82,FALSE,New Business ,New Business1701336809587,,,,None,,2023-11-30T09:33:30.044Z,2023-11-30T09:33:30.044Z,,,,,FALSE,FALSE,,[],,1,2000,0,0,63398b8a0d0a90001ffc520f,[],[],"[{""_id"":""656856eae2b620001ea76798"",""userId"":""656856eae2b620001ea76797"",""role"":""OWNER"",""email"":""kyanalshmal5@gmail.com"",""created_at"":""2023-11-30T09:33:30.043Z"",""updated_at"":""2023-11-30T09:33:30.043Z""}]"
83,FALSE,New Business ,New Business1702207711311,,,,None,,2023-12-10T11:28:31.662Z,2023-12-10T11:28:31.662Z,,,,,FALSE,FALSE,,[],,1,2000,0,0,63398b8a0d0a90001ffc520f,[],[],"[{""_id"":""6575a0dfa6417d001d4330ff"",""userId"":""6575a0dfa6417d001d4330fe"",""role"":""OWNER"",""email"":""passionworld051@gmail.com"",""created_at"":""2023-12-10T11:28:31.661Z"",""updated_at"":""2023-12-10T11:28:31.661Z""}]"
84,TRUE,New Business ,New Business1702221177790,,,,None,,2023-12-10T15:12:58.142Z,2023-12-12T12:29:37.264Z,,,,,TRUE,FALSE,,[],,1,2000,0,0,650b157f9a8b12001d4887ae,[],[],"[{""_id"":""6575d57aa6417d001d47db60"",""userId"":""6575d57aa6417d001d47db5f"",""role"":""OWNER"",""email"":""alamri.a.sultan@gmail.com"",""created_at"":""2023-12-10T15:12:58.141Z"",""updated_at"":""2023-12-12T12:26:59.822Z""}]"
85,FALSE,New Business ,New Business1702909424267,,,,None,,2023-12-18T14:23:44.639Z,2023-12-18T14:23:44.639Z,,,,,FALSE,FALSE,,[],,1,2000,0,0,63398b8a0d0a90001ffc520f,[],[],"[{""_id"":""658055f0fc136c001d7718c1"",""userId"":""658055f0fc136c001d7718c0"",""role"":""OWNER"",""email"":""info@littlecamel-sa.com"",""created_at"":""2023-12-18T14:23:44.639Z"",""updated_at"":""2023-12-18T14:23:44.639Z""}]"
86,FALSE,New Business ,New Business1702909695047,,,,None,,2023-12-18T14:28:15.418Z,2023-12-18T14:28:15.418Z,,,,,FALSE,FALSE,,[],,1,2000,0,0,63398b8a0d0a90001ffc520f,[],[],"[{""_id"":""658056fffc136c001d773ba2"",""userId"":""658056fffc136c001d773ba1"",""role"":""OWNER"",""email"":""sundos@littlecamel-sa.com"",""created_at"":""2023-12-18T14:28:15.417Z"",""updated_at"":""2023-12-18T14:28:15.417Z""}]"
87,FALSE,New Business ,New Business1702909763768,,,,None,,2023-12-18T14:29:24.155Z,2023-12-18T14:29:24.155Z,,,,,FALSE,FALSE,,[],,1,2000,0,0,63398b8a0d0a90001ffc520f,[],[],"[{""_id"":""65805744fc136c001d7742b6"",""userId"":""65805744fc136c001d7742b5"",""role"":""OWNER"",""email"":""othman@littlecamel-sa.com"",""created_at"":""2023-12-18T14:29:24.154Z"",""updated_at"":""2023-12-18T14:29:24.154Z""}]"
88,FALSE,New Business ,New Business1703438283573,,,,None,,2023-12-24T17:18:03.975Z,2023-12-24T17:18:03.975Z,,,,,FALSE,FALSE,,[],,1,2000,0,0,63398b8a0d0a90001ffc520f,[],[],"[{""_id"":""658867cbfc136c001d1ddd66"",""userId"":""658867cbfc136c001d1ddd65"",""role"":""OWNER"",""email"":""tvt9988@hotmail.com"",""created_at"":""2023-12-24T17:18:03.973Z"",""updated_at"":""2023-12-24T17:18:03.973Z""}]"
89,FALSE,New Business ,New Business1703438356509,,,,None,,2023-12-24T17:19:16.885Z,2023-12-24T17:19:16.885Z,,,,,FALSE,FALSE,,[],,1,2000,0,0,63398b8a0d0a90001ffc520f,[],[],"[{""_id"":""65886814fc136c001d1de712"",""userId"":""65886814fc136c001d1de711"",""role"":""OWNER"",""email"":""sur.193193@gmail.com"",""created_at"":""2023-12-24T17:19:16.884Z"",""updated_at"":""2023-12-24T17:19:16.884Z""}]"
90,FALSE,New Business ,New Business1704113090290,,,,None,,2024-01-01T12:44:50.737Z,2024-01-01T12:44:50.737Z,,,,,FALSE,FALSE,,[],,1,2000,0,0,63398b8a0d0a90001ffc520f,[],[],"[{""_id"":""6592b3c299959a001c359cc0"",""userId"":""6592b3c299959a001c359cbf"",""role"":""OWNER"",""email"":""padelstataon.sa@gmail.com"",""created_at"":""2024-01-01T12:44:50.736Z"",""updated_at"":""2024-01-01T12:44:50.736Z""}]"
91,FALSE,New Business ,New Business1704113244622,,,,None,,2024-01-01T12:47:24.992Z,2024-01-01T12:47:24.992Z,,,,,FALSE,FALSE,,[],,1,2000,0,0,63398b8a0d0a90001ffc520f,[],[],"[{""_id"":""6592b45c99959a001c35a392"",""userId"":""6592b45c99959a001c35a391"",""role"":""OWNER"",""email"":""padelstataion.sa@gmail.com"",""created_at"":""2024-01-01T12:47:24.991Z"",""updated_at"":""2024-01-01T12:47:24.991Z""}]"
92,FALSE,New Business ,New Business1704293523798,,,,None,,2024-01-03T14:52:04.166Z,2024-01-03T14:52:04.166Z,,,,,FALSE,FALSE,,[],,1,2000,0,0,63398b8a0d0a90001ffc520f,[],[],"[{""_id"":""6595749499959a001c77b30f"",""userId"":""6595749499959a001c77b30e"",""role"":""OWNER"",""email"":""smartnoni_15@hotmail.com"",""created_at"":""2024-01-03T14:52:04.164Z"",""updated_at"":""2024-01-03T14:52:04.164Z""}]"
93,FALSE,New Business ,New Business1705225248522,,,,None,,2024-01-14T09:40:48.932Z,2024-01-14T09:40:48.932Z,,,,,FALSE,FALSE,,[],,1,2000,0,0,63398b8a0d0a90001ffc520f,[],[],"[{""_id"":""65a3ac2099959a001cc78b2b"",""userId"":""65a3ac2099959a001cc78b2a"",""role"":""OWNER"",""email"":""mabubbles@hotmail.com"",""created_at"":""2024-01-14T09:40:48.931Z"",""updated_at"":""2024-01-14T09:40:48.931Z""}]"
94,TRUE,New Business ,New Business1705298133453,,,,None,,2024-01-15T05:55:33.850Z,2024-01-17T09:30:38.390Z,,,,,TRUE,FALSE,,[],,1,2000,0,0,63398b8a0d0a90001ffc520f,[],[],"[{""_id"":""65a4c8d599959a001cdf217c"",""userId"":""65a4c8d599959a001cdf217b"",""role"":""OWNER"",""email"":""famha1000@hotmail.com"",""created_at"":""2024-01-15T05:55:33.849Z"",""updated_at"":""2024-01-15T05:55:33.849Z""}]"
95,TRUE,New Business ,New Business1706190996979,,,,None,,2024-01-25T13:56:37.379Z,2024-01-25T13:57:02.930Z,,,,,TRUE,FALSE,,[],,1,2000,0,0,63398b8a0d0a90001ffc520f,[],[],"[{""_id"":""65b2689599959a001c4e589d"",""userId"":""65b2689599959a001c4e589c"",""role"":""OWNER"",""email"":""ghadi@resal.me"",""created_at"":""2024-01-25T13:56:37.377Z"",""updated_at"":""2024-01-25T13:56:37.377Z""}]"
96,FALSE,New Business ,New Business1707230705181,,,,None,,2024-02-06T14:45:05.709Z,2024-02-06T14:45:05.709Z,,,,,FALSE,FALSE,,[],,1,2000,0,0,63398b8a0d0a90001ffc520f,[],[],"[{""_id"":""65c245f125c73a001d46aaef"",""userId"":""65c245f125c73a001d46aaee"",""role"":""OWNER"",""email"":""manal@resal.me"",""created_at"":""2024-02-06T14:45:05.706Z"",""updated_at"":""2024-02-06T14:45:05.706Z""}]"
97,FALSE,New Business ,New Business1707369283355,,,,None,,2024-02-08T05:14:43.877Z,2024-02-08T05:14:43.877Z,,,,,FALSE,FALSE,,[],,1,2000,0,0,63398b8a0d0a90001ffc520f,[],[],"[{""_id"":""65c4634325c73a001d82ba0f"",""userId"":""65c4634325c73a001d82ba0e"",""role"":""OWNER"",""email"":""ameen_ah@hotmail.com"",""created_at"":""2024-02-08T05:14:43.876Z"",""updated_at"":""2024-02-08T05:14:43.876Z""}]"
98,FALSE,New Business ,New Business1707399108863,,,,None,,2024-02-08T13:31:49.389Z,2024-02-08T13:31:49.389Z,,,,,FALSE,FALSE,,[],,1,2000,0,0,63398b8a0d0a90001ffc520f,[],[],"[{""_id"":""65c4d7c525c73a001d96a57d"",""userId"":""65c4d7c525c73a001d96a57c"",""role"":""OWNER"",""email"":""lashbrows_salon@hotmail.com"",""created_at"":""2024-02-08T13:31:49.388Z"",""updated_at"":""2024-02-08T13:31:49.388Z""}]"
99,FALSE,New Business ,New Business1707725180054,,,,None,,2024-02-12T08:06:20.569Z,2024-02-12T08:06:20.569Z,,,,,FALSE,FALSE,,[],,1,2000,0,0,63398b8a0d0a90001ffc520f,[],[],"[{""_id"":""65c9d17c041c07001d99049b"",""userId"":""65c9d17c041c07001d99049a"",""role"":""OWNER"",""email"":""melsayed@esscoffee.com"",""created_at"":""2024-02-12T08:06:20.566Z"",""updated_at"":""2024-02-12T08:06:20.566Z""}]"
100,FALSE,New Business ,New Business1708335742574,,,,None,,2024-02-19T09:42:23.236Z,2024-02-19T09:42:23.236Z,,,,,FALSE,FALSE,,[],,1,2000,0,0,63398b8a0d0a90001ffc520f,[],[],"[{""_id"":""65d3227f35ec02001dc72f64"",""userId"":""65d3227f35ec02001dc72f63"",""role"":""OWNER"",""email"":""hh@thesandwichgallery.com"",""created_at"":""2024-02-19T09:42:23.224Z"",""updated_at"":""2024-02-19T09:42:23.224Z""}]"
101,FALSE,New Business ,New Business1708347538873,,,,None,,2024-02-19T12:58:59.494Z,2024-02-19T12:58:59.494Z,,,,,FALSE,FALSE,,[],,1,2000,0,0,63398b8a0d0a90001ffc520f,[],[],"[{""_id"":""65d3509335ec02001dcd8758"",""userId"":""65d3509335ec02001dcd8757"",""role"":""OWNER"",""email"":""vt71519@gmail.com"",""created_at"":""2024-02-19T12:58:59.492Z"",""updated_at"":""2024-02-19T12:58:59.492Z""}]"
102,FALSE,New Business ,New Business1708415365509,,,,None,,2024-02-20T07:49:26.077Z,2024-02-20T07:49:26.077Z,,,,,FALSE,FALSE,,[],,1,2000,0,0,63398b8a0d0a90001ffc520f,[],[],"[{""_id"":""65d4598635ec02001ded088f"",""userId"":""65d4598635ec02001ded088e"",""role"":""OWNER"",""email"":""wearemotorwaco@gmial.com"",""created_at"":""2024-02-20T07:49:26.075Z"",""updated_at"":""2024-02-20T07:49:26.075Z""}]"
103,FALSE,New Business ,New Business1708415574422,,,,None,,2024-02-20T07:52:55.069Z,2024-02-20T07:52:55.069Z,,,,,FALSE,FALSE,,[],,1,2000,0,0,63398b8a0d0a90001ffc520f,[],[],"[{""_id"":""65d45a5735ec02001ded2404"",""userId"":""65d45a5735ec02001ded2403"",""role"":""OWNER"",""email"":""wearemotorwayco@gmial.com"",""created_at"":""2024-02-20T07:52:55.066Z"",""updated_at"":""2024-02-20T07:52:55.066Z""}]"
104,TRUE,New Business ,New Business1708439724171,,,,None,,2024-02-20T14:35:24.711Z,2024-02-20T16:57:49.666Z,,,,,TRUE,FALSE,,[],,1,2000,0,0,63398b8a0d0a90001ffc520f,[],[],"[{""_id"":""65d4b8ac35ec02001dfc3e02"",""userId"":""65d4b8ac35ec02001dfc3e01"",""role"":""OWNER"",""email"":""aaahmadr49@gmail.com"",""created_at"":""2024-02-20T14:35:24.708Z"",""updated_at"":""2024-02-20T14:35:24.708Z""}]"
105,FALSE,New Business ,New Business1708447479884,,,,None,,2024-02-20T16:44:40.399Z,2024-02-20T16:44:40.399Z,,,,,FALSE,FALSE,,[],,1,2000,0,0,63398b8a0d0a90001ffc520f,[],[],"[{""_id"":""65d4d6f835ec02001d0086ea"",""userId"":""65d4d6f835ec02001d0086e9"",""role"":""OWNER"",""email"":""a.alghamdi@bandageksa.com"",""created_at"":""2024-02-20T16:44:40.396Z"",""updated_at"":""2024-02-20T16:44:40.396Z""}]"
106,FALSE,New Business ,New Business1709102086418,,,,None,,2024-02-28T06:34:47.026Z,2024-02-28T06:34:47.026Z,,,,,FALSE,FALSE,,[],,1,2000,0,0,63398b8a0d0a90001ffc520f,[],[],"[{""_id"":""65ded40635ec02001d371fd4"",""userId"":""65ded40635ec02001d371fd3"",""role"":""OWNER"",""email"":""info@dopamine-ksa.com"",""created_at"":""2024-02-28T06:34:47.015Z"",""updated_at"":""2024-02-28T06:34:47.015Z""}]"
107,FALSE,New Business ,New Business1709130490014,,,,None,,2024-02-28T14:28:10.782Z,2024-02-28T14:28:10.782Z,,,,,FALSE,FALSE,,[],,1,2000,0,0,63398b8a0d0a90001ffc520f,[],[],"[{""_id"":""65df42fa35ec02001d48f624"",""userId"":""65df42fa35ec02001d48f623"",""role"":""OWNER"",""email"":""xxr5@hotmail.com"",""created_at"":""2024-02-28T14:28:10.737Z"",""updated_at"":""2024-02-28T14:28:10.737Z""}]"
108,FALSE,New Business ,New Business1709130872651,,,,None,,2024-02-28T14:34:33.351Z,2024-02-28T14:34:33.351Z,,,,,FALSE,FALSE,,[],,1,2000,0,0,63398b8a0d0a90001ffc520f,[],[],"[{""_id"":""65df447935ec02001d49363f"",""userId"":""65df447935ec02001d49363e"",""role"":""OWNER"",""email"":""i3ii@hotmail.com"",""created_at"":""2024-02-28T14:34:33.349Z"",""updated_at"":""2024-02-28T14:34:33.349Z""}]"
109,TRUE,New Business ,New Business1709467896068,,,,None,,2024-03-03T12:11:36.663Z,2024-03-04T08:43:15.146Z,,,,,TRUE,FALSE,,[],,1,2000,0,0,63398b8a0d0a90001ffc520f,[],[],"[{""_id"":""65e468f835ec02001df12ea5"",""userId"":""65e468f835ec02001df12ea4"",""role"":""OWNER"",""email"":""op992009@hotmail.com"",""created_at"":""2024-03-03T12:11:36.661Z"",""updated_at"":""2024-03-03T12:11:36.661Z""}]"
110,FALSE,New Business ,New Business1709719220176,,,,None,,2024-03-06T10:00:20.758Z,2024-03-06T10:00:20.758Z,,,,,FALSE,FALSE,,[],,1,2000,0,0,63398b8a0d0a90001ffc520f,[],[],"[{""_id"":""65e83eb46e4281001da2116a"",""userId"":""65e83eb46e4281001da21169"",""role"":""OWNER"",""email"":""info@cictg.com"",""created_at"":""2024-03-06T10:00:20.756Z"",""updated_at"":""2024-03-06T10:00:20.756Z""}]"
111,FALSE,New Business ,New Business1709720044018,,,,None,,2024-03-06T10:14:04.691Z,2024-03-06T10:14:04.691Z,,,,,FALSE,FALSE,,[],,1,2000,0,0,63398b8a0d0a90001ffc520f,[],[],"[{""_id"":""65e841ec6e4281001da2929b"",""userId"":""65e841ec6e4281001da2929a"",""role"":""OWNER"",""email"":""akareem.sindi@cictg.com"",""created_at"":""2024-03-06T10:14:04.690Z"",""updated_at"":""2024-03-06T10:14:04.690Z""}]"
112,FALSE,New Business ,New Business1709832098667,,,,None,,2024-03-07T17:21:39.284Z,2024-03-07T17:21:39.284Z,,,,,FALSE,FALSE,,[],,1,2000,0,0,63398b8a0d0a90001ffc520f,[],[],"[{""_id"":""65e9f7a36e4281001de0da68"",""userId"":""65e9f7a36e4281001de0da67"",""role"":""OWNER"",""email"":""boxcoffee@hotmail.com"",""created_at"":""2024-03-07T17:21:39.282Z"",""updated_at"":""2024-03-07T17:21:39.282Z""}]"
113,TRUE,New Business ,New Business1709832161928,,,,None,,2024-03-07T17:22:42.531Z,2024-05-09T15:11:14.164Z,,,,,TRUE,FALSE,,[],,1,2000,0,0,63398b8a0d0a90001ffc520f,[],[],"[{""_id"":""65e9f7e26e4281001de0ef2f"",""userId"":""65e9f7e26e4281001de0ef2e"",""role"":""OWNER"",""email"":""boxcoffee11@hotmail.com"",""created_at"":""2024-03-07T17:22:42.529Z"",""updated_at"":""2024-03-07T17:22:42.529Z""}]"
114,TRUE,New Business ,New Business1710164384669,,,,None,,2024-03-11T13:39:45.208Z,2024-03-11T15:17:06.445Z,,,,,TRUE,FALSE,,[],,1,2000,0,0,63398b8a0d0a90001ffc520f,[],[],"[{""_id"":""65ef09a109ebe8001cddc256"",""userId"":""65ef09a109ebe8001cddc255"",""role"":""OWNER"",""email"":""saeedhussein279@gmail.com"",""created_at"":""2024-03-11T13:39:45.206Z"",""updated_at"":""2024-03-11T13:39:45.206Z""}]"
115,FALSE,New Business ,New Business1710441588528,,,,None,,2024-03-14T18:39:48.894Z,2024-03-14T18:39:48.894Z,,,,,FALSE,FALSE,,[],,1,2000,0,0,63398b8a0d0a90001ffc520f,[],[],"[{""_id"":""65f34474ff2de0001c0fcb91"",""userId"":""65f34474ff2de0001c0fcb90"",""role"":""OWNER"",""email"":""engr.a66@gmail.com"",""created_at"":""2024-03-14T18:39:48.893Z"",""updated_at"":""2024-03-14T18:39:48.893Z""}]"
116,FALSE,New Business ,New Business1710871943555,,,,None,,2024-03-19T18:12:23.909Z,2024-03-19T18:12:23.909Z,,,,,FALSE,FALSE,,[],,1,2000,0,0,63398b8a0d0a90001ffc520f,[],[],"[{""_id"":""65f9d587ff2de0001cc78c3b"",""userId"":""65f9d587ff2de0001cc78c3a"",""role"":""OWNER"",""email"":""hshamloutfy20@gmail"",""created_at"":""2024-03-19T18:12:23.907Z"",""updated_at"":""2024-03-19T18:12:23.907Z""}]"
117,FALSE,New Business ,New Business1711311566561,,,,None,,2024-03-24T20:19:26.951Z,2024-03-24T20:19:26.951Z,,,,,FALSE,FALSE,,[],,1,2000,0,0,63398b8a0d0a90001ffc520f,[],[],"[{""_id"":""66008aceff2de0001c874585"",""userId"":""66008aceff2de0001c874584"",""role"":""OWNER"",""email"":""khaled.1234123@hotmail.com"",""created_at"":""2024-03-24T20:19:26.950Z"",""updated_at"":""2024-03-24T20:19:26.950Z""}]"
118,TRUE,New Business ,New Business1711402900489,,,,None,,2024-03-25T21:41:40.876Z,2024-03-25T21:42:56.334Z,,,,,TRUE,FALSE,,[],,1,2000,0,0,63398b8a0d0a90001ffc520f,[],[],"[{""_id"":""6601ef94ff2de0001cafe219"",""userId"":""6601ef94ff2de0001cafe218"",""role"":""OWNER"",""email"":""order@thesandwichgallery.com"",""created_at"":""2024-03-25T21:41:40.875Z"",""updated_at"":""2024-03-25T21:41:40.875Z""}]"
119,FALSE,New Business ,New Business1711892346124,,,,None,,2024-03-31T13:39:06.491Z,2024-03-31T13:39:06.491Z,,,,,FALSE,FALSE,,[],,1,2000,0,0,63398b8a0d0a90001ffc520f,[],[],"[{""_id"":""6609677aff2de0001c7e050b"",""userId"":""6609677aff2de0001c7e050a"",""role"":""OWNER"",""email"":""lessismore.ksa@outlook.sa"",""created_at"":""2024-03-31T13:39:06.490Z"",""updated_at"":""2024-03-31T13:39:06.490Z""}]"
120,TRUE,New Business ,New Business1712143957251,,,,None,,2024-04-03T11:32:37.632Z,2024-04-23T13:08:56.762Z,,,,,TRUE,FALSE,,[],,1,2000,0,0,63398b8a0d0a90001ffc520f,[],[],"[{""_id"":""660d3e55ff2de0001cf1ce4b"",""userId"":""660d3e55ff2de0001cf1ce4a"",""role"":""OWNER"",""email"":""starbowling2014@gmail.com"",""created_at"":""2024-04-03T11:32:37.630Z"",""updated_at"":""2024-04-03T11:32:37.630Z""}]"
121,FALSE,New Business ,New Business1713200764970,,,,None,,2024-04-15T17:06:05.322Z,2024-04-15T17:06:05.322Z,,,,,FALSE,FALSE,,[],,1,2000,0,0,63398b8a0d0a90001ffc520f,[],[],"[{""_id"":""661d5e7dff2de0001c2238c0"",""userId"":""661d5e7dff2de0001c2238bf"",""role"":""OWNER"",""email"":""h.chiliing22@gmail.com"",""created_at"":""2024-04-15T17:06:05.321Z"",""updated_at"":""2024-04-15T17:06:05.321Z""}]"
122,FALSE,New Business ,New Business1713253626220,,,,None,,2024-04-16T07:47:06.587Z,2024-04-16T07:47:06.587Z,,,,,FALSE,FALSE,,[],,1,2000,0,0,63398b8a0d0a90001ffc520f,[],[],"[{""_id"":""661e2cfaff2de0001c423de3"",""userId"":""661e2cfaff2de0001c423de2"",""role"":""OWNER"",""email"":""hassan.jameel@ufc.com.sa"",""created_at"":""2024-04-16T07:47:06.586Z"",""updated_at"":""2024-04-16T07:47:06.586Z""}]"
123,FALSE,New Business ,New Business1713874163771,,,,None,,2024-04-23T12:09:24.158Z,2024-04-23T12:09:24.158Z,,,,,FALSE,FALSE,,[],,1,2000,0,0,63398b8a0d0a90001ffc520f,[],[],"[{""_id"":""6627a4f4ff2de0001cc68a5c"",""userId"":""6627a4f4ff2de0001cc68a5b"",""role"":""OWNER"",""email"":""rawah2018@gmail.com"",""created_at"":""2024-04-23T12:09:24.156Z"",""updated_at"":""2024-04-23T12:09:24.156Z""}]"
124,FALSE,New Business ,New Business1713980837535,,,,None,,2024-04-24T17:47:17.890Z,2024-04-24T17:47:17.890Z,,,,,FALSE,FALSE,,[],,1,2000,0,0,63398b8a0d0a90001ffc520f,[],[],"[{""_id"":""662945a5ff2de0001c0e057a"",""userId"":""662945a5ff2de0001c0e0579"",""role"":""OWNER"",""email"":""info@dondou.net"",""created_at"":""2024-04-24T17:47:17.889Z"",""updated_at"":""2024-04-24T17:47:17.889Z""}]"
125,FALSE,New Business ,New Business1714465063015,,,,None,,2024-04-30T08:17:43.418Z,2024-04-30T08:17:43.418Z,,,,,FALSE,FALSE,,[],,1,2000,0,0,63398b8a0d0a90001ffc520f,[],[],"[{""_id"":""6630a927ff2de0001c5c28d9"",""userId"":""6630a927ff2de0001c5c28d8"",""role"":""OWNER"",""email"":""info@lune.sa"",""created_at"":""2024-04-30T08:17:43.417Z"",""updated_at"":""2024-04-30T08:17:43.417Z""}]"
126,FALSE,New Business ,New Business1714465550193,,,,None,,2024-04-30T08:25:50.548Z,2024-04-30T08:25:50.548Z,,,,,FALSE,FALSE,,[],,1,2000,0,0,63398b8a0d0a90001ffc520f,[],[],"[{""_id"":""6630ab0eff2de0001c5c901f"",""userId"":""6630ab0eff2de0001c5c901e"",""role"":""OWNER"",""email"":""taibh.ahmed@outlook.sa"",""created_at"":""2024-04-30T08:25:50.547Z"",""updated_at"":""2024-04-30T08:25:50.547Z""}]"
127,FALSE,New Business ,New Business1714581739771,,,,None,,2024-05-01T16:42:20.139Z,2024-05-05T08:56:08.405Z,,,,,FALSE,FALSE,,[],,1,10000,0,0,63398b8a0d0a90001ffc520f,[],[],"[{""_id"":""663270ecff2de0001cb00a05"",""userId"":""663270ecff2de0001cb00a04"",""role"":""OWNER"",""email"":""wightwash1313@gmail.com"",""created_at"":""2024-05-01T16:42:20.137Z"",""updated_at"":""2024-05-01T16:42:20.137Z""}]"
128,FALSE,New Business ,New Business1714638808811,,,,None,,2024-05-02T08:33:29.202Z,2024-05-02T08:33:29.202Z,,,,,FALSE,FALSE,,[],,1,2000,0,0,63398b8a0d0a90001ffc520f,[],[],"[{""_id"":""66334fd9ff2de0001cd6d7d6"",""userId"":""66334fd9ff2de0001cd6d7d5"",""role"":""OWNER"",""email"":""kingcarwashes1@gmail.com"",""created_at"":""2024-05-02T08:33:29.201Z"",""updated_at"":""2024-05-02T08:33:29.201Z""}]"
129,FALSE,New Business ,New Business1715705268477,,,,None,,2024-05-14T16:47:49.078Z,2024-05-14T16:47:49.078Z,,,,,FALSE,FALSE,,[],,1,2000,0,0,63398b8a0d0a90001ffc520f,[],[],"[{""_id"":""664395b5e046c1001e3d7dc5"",""userId"":""664395b5e046c1001e3d7dc4"",""role"":""OWNER"",""email"":""a555599313@gmail.com"",""created_at"":""2024-05-14T16:47:49.076Z"",""updated_at"":""2024-05-14T16:47:49.076Z""}]"
130,FALSE,New Business ,New Business1715850547379,Sekai,Has other active account: 6652fd40667e19001dbfc08d,,cafes,,2024-05-16T09:09:08.069Z,2024-08-01T09:30:48.631Z,https://prod-boonus-general.s3.ap-south-1.amazonaws.com/logo_6645cd3396506d001d08113e_wINn0yi5uF.png,,https://prod-boonus-general.s3.ap-south-1.amazonaws.com/catalogue_6645cd3396506d001d08113e_EQ6ZZCS-9Z.pdf,,FALSE,TRUE,,[],"عالم غريب المعالم
في سيكاي خيالك يغدو واقع.. من شخصيتك المفضلة الى لذة أصنافنا المختارة🍥",1,2000,0,0,63398b8a0d0a90001ffc520f,"[{""active"":false,""_id"":""6655c387fc6868001df1fe5c"",""integrationName"":""FOODICS"",""activationDate"":""2024-08-01T09:30:23.472Z""}]","[{""sourceId"":""9809703f-f93e-4e3a-b2a9-d70e4c0be383"",""reference"":""B01"",""main"":false,""active"":false,""_id"":""6655c3b4fc6868001df21b83"",""name"":""Sekai coffee"",""arabicName"":null,""lat"":"""",""lng"":"""",""workingHours"":{""sunday"":{""working"":true,""_id"":""6655c3b4fc6868001df21b84"",""shifts"":[{""_id"":""6655c3b4fc6868001df21b85"",""from"":""00:00"",""to"":""00:00""}]},""monday"":{""working"":true,""_id"":""6655c3b4fc6868001df21b86"",""shifts"":[{""_id"":""6655c3b4fc6868001df21b87"",""from"":""00:00"",""to"":""00:00""}]},""tuesday"":{""working"":true,""_id"":""6655c3b4fc6868001df21b88"",""shifts"":[{""_id"":""6655c3b4fc6868001df21b89"",""from"":""00:00"",""to"":""00:00""}]},""wednesday"":{""working"":true,""_id"":""6655c3b4fc6868001df21b8a"",""shifts"":[{""_id"":""6655c3b4fc6868001df21b8b"",""from"":""00:00"",""to"":""00:00""}]},""thursday"":{""working"":true,""_id"":""6655c3b4fc6868001df21b8c"",""shifts"":[{""_id"":""6655c3b4fc6868001df21b8d"",""from"":""00:00"",""to"":""00:00""}]},""friday"":{""working"":true,""_id"":""6655c3b4fc6868001df21b8e"",""shifts"":[{""_id"":""6655c3b4fc6868001df21b8f"",""from"":""00:00"",""to"":""00:00""}]},""saturday"":{""working"":true,""_id"":""6655c3b4fc6868001df21b90"",""shifts"":[{""_id"":""6655c3b4fc6868001df21b91"",""from"":""00:00"",""to"":""00:00""}]}},""created_at"":""2024-05-28T11:44:52.817Z"",""updated_at"":""2024-07-29T13:38:35.620Z""}]","[{""_id"":""6645cd3396506d001d081141"",""userId"":""6645cd3396506d001d081140"",""role"":""OWNER"",""email"":""hallakhawaji@gmail.com"",""created_at"":""2024-05-16T09:09:07.993Z"",""updated_at"":""2024-05-16T09:09:07.993Z""}]"
131,FALSE,New Business ,New Business1716321263050,,,,None,,2024-05-21T19:54:23.689Z,2024-05-21T19:54:23.689Z,,,,,FALSE,FALSE,,[],,1,2000,0,0,63398b8a0d0a90001ffc520f,[],[],"[{""_id"":""664cfbef068462001df4f1fc"",""userId"":""664cfbef068462001df4f1fb"",""role"":""OWNER"",""email"":""nnaa14000@hotmail.com"",""created_at"":""2024-05-21T19:54:23.688Z"",""updated_at"":""2024-05-21T19:54:23.688Z""}]"
132,FALSE,New Business ,New Business1716744079341,,,,None,,2024-05-26T17:21:19.906Z,2024-05-26T17:21:19.906Z,,,,,FALSE,FALSE,,[],,1,2000,0,0,63398b8a0d0a90001ffc520f,[],[],"[{""_id"":""66536f8f667e19001dd6aa53"",""userId"":""66536f8f667e19001dd6aa52"",""role"":""OWNER"",""email"":""m.alhamdan501@gmail.com"",""created_at"":""2024-05-26T17:21:19.905Z"",""updated_at"":""2024-05-26T17:21:19.905Z""}]"
133,FALSE,New Business ,New Business1716883099067,,,,None,,2024-05-28T07:58:19.621Z,2024-05-28T07:58:19.621Z,,,,,FALSE,FALSE,,[],,1,2000,0,0,63398b8a0d0a90001ffc520f,[],[],"[{""_id"":""66558e9bfc6868001de70f1e"",""userId"":""66558e9bfc6868001de70f1d"",""role"":""OWNER"",""email"":""barcup.sa@outlook.sa"",""created_at"":""2024-05-28T07:58:19.621Z"",""updated_at"":""2024-05-28T07:58:19.621Z""}]"
134,FALSE,New Business ,New Business1716891302199,,,,None,,2024-05-28T10:15:02.908Z,2024-05-28T10:15:02.908Z,,,,,FALSE,FALSE,,[],,1,2000,0,0,63398b8a0d0a90001ffc520f,[],[],"[{""_id"":""6655aea6fc6868001dee5aae"",""userId"":""6655aea6fc6868001dee5aad"",""role"":""OWNER"",""email"":""gl6y@hotmail.com"",""created_at"":""2024-05-28T10:15:02.904Z"",""updated_at"":""2024-05-28T10:15:02.904Z""}]"
135,FALSE,New Business ,New Business1717576758773,,,,None,,2024-06-05T08:39:19.337Z,2024-07-03T08:31:22.150Z,,,,,FALSE,FALSE,,[],,1,2000,0,0,66448045e046c1001e668a3d,[],[],"[{""_id"":""6660243769fcc0001d423a27"",""userId"":""6660243769fcc0001d423a26"",""role"":""OWNER"",""email"":""cafec788@gmail.com"",""created_at"":""2024-06-05T08:39:19.336Z"",""updated_at"":""2024-06-05T08:39:19.336Z""}]"
136,FALSE,New Business ,New Business1717927258543,,,,None,,2024-06-09T10:00:59.306Z,2024-06-09T10:00:59.306Z,,,,,FALSE,FALSE,,[],,1,2000,0,0,63398b8a0d0a90001ffc520f,[],[],"[{""_id"":""66657d5bf73f9d001db8b401"",""userId"":""66657d5bf73f9d001db8b400"",""role"":""OWNER"",""email"":""hatmm1415@hotmail.com"",""created_at"":""2024-06-09T10:00:59.305Z"",""updated_at"":""2024-06-09T10:00:59.305Z""}]"
137,TRUE,New Business ,New Business1719218296311,,,,None,,2024-06-24T08:38:16.891Z,2024-06-24T08:40:48.823Z,,,,,TRUE,FALSE,,[],,1,2000,0,0,63398b8a0d0a90001ffc520f,[],[],"[{""_id"":""66793078487234001d327c9b"",""userId"":""66793078487234001d327c9a"",""role"":""OWNER"",""email"":""hgammal.hg@gmail.com"",""created_at"":""2024-06-24T08:38:16.890Z"",""updated_at"":""2024-06-24T08:38:16.890Z""}]"
138,TRUE,New Business ,New Business1719412843911,,,,None,,2024-06-26T14:40:44.478Z,2024-06-26T14:50:30.611Z,,,,,TRUE,FALSE,,[],,1,2000,0,0,63398b8a0d0a90001ffc520f,[],[],"[{""_id"":""667c286c487234001d97404e"",""userId"":""667c286c487234001d97404d"",""role"":""OWNER"",""email"":""mohammed.haseeb@techvenchure.com"",""created_at"":""2024-06-26T14:40:44.478Z"",""updated_at"":""2024-06-26T14:40:44.478Z""}]"
139,FALSE,New Business ,New Business1719490189134,,,,None,,2024-06-27T12:09:49.693Z,2024-06-27T12:09:49.693Z,,,,,FALSE,FALSE,,[],,1,2000,0,0,63398b8a0d0a90001ffc520f,[],[],"[{""_id"":""667d568d487234001dc24723"",""userId"":""667d568d487234001dc24722"",""role"":""OWNER"",""email"":""rawadalnazafa@gmail.com"",""created_at"":""2024-06-27T12:09:49.692Z"",""updated_at"":""2024-06-27T12:09:49.692Z""}]"
140,FALSE,New Business ,New Business1719688001755,,,,None,,2024-06-29T19:06:42.385Z,2024-06-29T19:06:42.385Z,,,,,FALSE,FALSE,,[],,1,2000,0,0,63398b8a0d0a90001ffc520f,[],[],"[{""_id"":""66805b42487234001d3a0e97"",""userId"":""66805b42487234001d3a0e96"",""role"":""OWNER"",""email"":""fn1411@hotmail.com"",""created_at"":""2024-06-29T19:06:42.384Z"",""updated_at"":""2024-06-29T19:06:42.384Z""}]"
141,TRUE,New Business ,New Business1720433113302,,,,None,,2024-07-08T10:05:13.888Z,2024-07-08T10:05:33.958Z,,,,,TRUE,FALSE,,[],,1,2000,0,0,63398b8a0d0a90001ffc520f,[],[],"[{""_id"":""668bb9d9487234001de1c3ee"",""userId"":""668bb9d9487234001de1c3ed"",""role"":""OWNER"",""email"":""halammari@resal.me"",""created_at"":""2024-07-08T10:05:13.887Z"",""updated_at"":""2024-07-08T10:05:13.887Z""}]"
142,FALSE,New Business ,New Business1720620927620,,,,None,,2024-07-10T14:15:28.186Z,2024-07-10T14:15:28.186Z,,,,,FALSE,FALSE,,[],,1,2000,0,0,63398b8a0d0a90001ffc520f,[],[],"[{""_id"":""668e9780487234001d53dd8f"",""userId"":""668e9780487234001d53dd8e"",""role"":""OWNER"",""email"":""ticket@millenium-dz.com"",""created_at"":""2024-07-10T14:15:28.186Z"",""updated_at"":""2024-07-10T14:15:28.186Z""}]"
143,FALSE,New Business ,New Business1721297099644,,,,None,,2024-07-18T10:05:00.193Z,2024-07-18T13:58:00.864Z,,,,,FALSE,FALSE,,[],,1,2000,0,0,63398b8a0d0a90001ffc520f,[],[],"[{""_id"":""6698e8cce72721001d000e69"",""userId"":""6698e8cce72721001d000e68"",""role"":""OWNER"",""email"":""browncoffeemk@gmail.com"",""created_at"":""2024-07-18T10:05:00.192Z"",""updated_at"":""2024-07-18T10:05:00.192Z""}]"
144,TRUE,New Business ,New Business1721297548356,,,,None,,2024-07-18T10:12:28.983Z,2024-07-18T10:13:10.882Z,,,,,TRUE,FALSE,,[],,1,2000,0,0,63398b8a0d0a90001ffc520f,[],[],"[{""_id"":""6698ea8ce72721001d004bbb"",""userId"":""6698ea8ce72721001d004bba"",""role"":""OWNER"",""email"":""700787789as@gmail.com"",""created_at"":""2024-07-18T10:12:28.982Z"",""updated_at"":""2024-07-18T10:12:28.982Z""}]"
145,TRUE,New Business ,New Business1721337781903,,,,None,,2024-07-18T21:23:02.520Z,2024-07-18T21:24:11.289Z,,,,,TRUE,FALSE,,[],,1,2000,0,0,63398b8a0d0a90001ffc520f,[],[],"[{""_id"":""669987b6e72721001d234810"",""userId"":""669987b6e72721001d23480f"",""role"":""OWNER"",""email"":""alaadi.h@gmail.com"",""created_at"":""2024-07-18T21:23:02.519Z"",""updated_at"":""2024-07-18T21:23:02.519Z""}]"
146,TRUE,New Business ,New Business1721583727226,,,,None,,2024-07-21T17:42:07.783Z,2024-07-21T17:42:34.004Z,,,,,TRUE,FALSE,,[],,1,2000,0,0,63398b8a0d0a90001ffc520f,[],[],"[{""_id"":""669d486f1eb362001ef61474"",""userId"":""669d486f1eb362001ef61473"",""role"":""OWNER"",""email"":""cs@resal.me"",""created_at"":""2024-07-21T17:42:07.782Z"",""updated_at"":""2024-07-21T17:42:07.782Z""}]"
147,TRUE,New Business ,New Business1721820419554,,,,None,,2024-07-24T11:27:00.100Z,2024-07-27T05:53:29.430Z,,,,,TRUE,FALSE,,[],,1,2000,0,0,63398b8a0d0a90001ffc520f,[],[],"[{""_id"":""66a0e504ccfef7001e799b01"",""userId"":""66a0e504ccfef7001e799b00"",""role"":""OWNER"",""email"":""hotelhada@hotmail.com"",""created_at"":""2024-07-24T11:27:00.099Z"",""updated_at"":""2024-07-24T11:27:00.099Z""}]"
148,FALSE,New Business ,New Business1722241078537,,,,None,,2024-07-29T08:17:59.192Z,2024-07-29T08:17:59.192Z,,,,,FALSE,FALSE,,[],,1,2000,0,0,63398b8a0d0a90001ffc520f,[],[],"[{""_id"":""66a7503762b3e4001de0b272"",""userId"":""66a7503762b3e4001de0b271"",""role"":""OWNER"",""email"":""blue-cafe@gmail.com"",""created_at"":""2024-07-29T08:17:59.191Z"",""updated_at"":""2024-07-29T08:17:59.191Z""}]"
149,FALSE,New Business ,New Business1722327242565,,,,None,,2024-07-30T08:14:03.188Z,2024-07-30T08:14:03.188Z,,,,,FALSE,FALSE,,[],,1,2000,0,0,63398b8a0d0a90001ffc520f,[],[],"[{""_id"":""66a8a0cb23bbb5001d789dac"",""userId"":""66a8a0cb23bbb5001d789dab"",""role"":""OWNER"",""email"":""heroitalt2010@yahoo.com"",""created_at"":""2024-07-30T08:14:03.187Z"",""updated_at"":""2024-07-30T08:14:03.187Z""}]"
150,FALSE,New Business ,New Business1722762224736,,,,None,,2024-08-04T09:03:45.291Z,2024-08-04T09:03:45.291Z,,,,,FALSE,FALSE,,[],,1,2000,0,0,63398b8a0d0a90001ffc520f,[],[],"[{""_id"":""66af43f156ede4001d353b10"",""userId"":""66af43f156ede4001d353b0f"",""role"":""OWNER"",""email"":""teaspoot@gmail.con"",""created_at"":""2024-08-04T09:03:45.290Z"",""updated_at"":""2024-08-04T09:03:45.290Z""}]"
151,FALSE,New Business ,New Business1722769838087,,,,None,,2024-08-04T11:10:38.679Z,2024-08-04T11:10:38.679Z,,,,,FALSE,FALSE,,[],,1,2000,0,0,63398b8a0d0a90001ffc520f,[],[],"[{""_id"":""66af61ae56ede4001d39da4f"",""userId"":""66af61ae56ede4001d39da4e"",""role"":""OWNER"",""email"":""o566668373@gmali.com"",""created_at"":""2024-08-04T11:10:38.679Z"",""updated_at"":""2024-08-04T11:10:38.679Z""}]"
152,FALSE,New Business ,New Business1722770097977,,,,None,,2024-08-04T11:14:58.675Z,2024-08-04T11:14:58.675Z,,,,,FALSE,FALSE,,[],,1,2000,0,0,63398b8a0d0a90001ffc520f,[],[],"[{""_id"":""66af62b256ede4001d39fb05"",""userId"":""66af62b256ede4001d39fb04"",""role"":""OWNER"",""email"":""0566668373@gmail.com"",""created_at"":""2024-08-04T11:14:58.674Z"",""updated_at"":""2024-08-04T11:14:58.674Z""}]"
153,TRUE,New Business ,New Business1722936729951,,,,None,,2024-08-06T09:32:10.574Z,2024-08-06T09:32:39.465Z,,,,,TRUE,FALSE,,[],,1,2000,0,0,63398b8a0d0a90001ffc520f,[],[],"[{""_id"":""66b1ed9a56ede4001dadc789"",""userId"":""66b1ed9a56ede4001dadc788"",""role"":""OWNER"",""email"":""saramedx@gmail.com"",""created_at"":""2024-08-06T09:32:10.521Z"",""updated_at"":""2024-08-06T09:32:10.521Z""}]"
154,TRUE,New Business ,New Business1723732312896,,,,None,,2024-08-15T14:31:53.522Z,2024-08-15T14:32:32.365Z,,,,,TRUE,FALSE,,[],,1,2000,0,0,63398b8a0d0a90001ffc520f,[],[],"[{""_id"":""66be1159f9a867001d819ca6"",""userId"":""66be1159f9a867001d819ca5"",""role"":""OWNER"",""email"":""onion@raja.com.sa"",""created_at"":""2024-08-15T14:31:53.521Z"",""updated_at"":""2024-08-15T14:31:53.521Z""}]"
155,FALSE,New Business ,New Business1724850769673,مغسلة منافع الرواد ,Has other active account : 66d672df934deb001d181f7e,,automotive,,2024-08-28T13:12:50.286Z,2024-11-26T13:27:45.954Z,https://prod-boonus-general.s3.ap-south-1.amazonaws.com/logo_66cf2251af07b4001e72b74f_clncX0qiDv.jpeg,عناية غسيل السيارات من الداخل و الخارج,,,FALSE,TRUE,,[],عناية غسيل السيارات من الداخل والخارج ,1,2000,0,0,63398b8a0d0a90001ffc520f,"[{""active"":false,""_id"":""66cf31efaf07b4001e764605"",""integrationName"":""FOODICS"",""activationDate"":""2024-08-28T14:19:27.516Z""}]",[],"[{""_id"":""66cf2252af07b4001e72b752"",""userId"":""66cf2252af07b4001e72b751"",""role"":""OWNER"",""email"":""badhmdnabdaulmlk@gmail.com"",""created_at"":""2024-08-28T13:12:50.284Z"",""updated_at"":""2024-08-28T13:12:50.284Z""}]"
156,TRUE,New Business ,New Business1725062676216,,,,None,,2024-08-31T00:04:36.803Z,2024-08-31T00:12:12.340Z,,,,,TRUE,FALSE,,[],,1,2000,0,0,63398b8a0d0a90001ffc520f,[],[],"[{""_id"":""66d25e14aed21d001dcc5214"",""userId"":""66d25e14aed21d001dcc5213"",""role"":""OWNER"",""email"":""m.ali939697@gmail.com"",""created_at"":""2024-08-31T00:04:36.802Z"",""updated_at"":""2024-08-31T00:04:36.802Z""}]"
157,FALSE,New Business ,New Business1726415990275,,,,None,,2024-09-15T15:59:50.892Z,2024-09-15T15:59:50.892Z,,,,,FALSE,FALSE,,[],,1,2000,0,0,63398b8a0d0a90001ffc520f,[],[],"[{""_id"":""66e70476705ad3001d11c9b0"",""userId"":""66e70476705ad3001d11c9af"",""role"":""OWNER"",""email"":""aalahrani13@hotmail.com"",""created_at"":""2024-09-15T15:59:50.892Z"",""updated_at"":""2024-09-15T15:59:50.892Z""}]"
158,FALSE,New Business ,New Business1726479775814,,,,None,,2024-09-16T09:42:56.396Z,2024-09-16T09:42:56.396Z,,,,,FALSE,FALSE,,[],,1,2000,0,0,63398b8a0d0a90001ffc520f,[],[],"[{""_id"":""66e7fda037dae7001d8b0c2c"",""userId"":""66e7fda037dae7001d8b0c2b"",""role"":""OWNER"",""email"":""ameeralarifi111@gmail.com"",""created_at"":""2024-09-16T09:42:56.396Z"",""updated_at"":""2024-09-16T09:42:56.396Z""}]"
159,FALSE,New Business ,New Business1726480006810,,,,None,,2024-09-16T09:46:47.384Z,2024-09-30T10:47:27.763Z,,,,,FALSE,TRUE,,[],,1,2000,0,0,63398b8a0d0a90001ffc520f,[],[],"[{""_id"":""66e7fe8737dae7001d8b3372"",""userId"":""66e7fe8737dae7001d8b3371"",""role"":""OWNER"",""email"":""ameeralarifi11@gmail.com"",""created_at"":""2024-09-16T09:46:47.383Z"",""updated_at"":""2024-09-16T09:46:47.383Z""}]"
160,FALSE,New Business ,New Business1726515276935,,,,None,,2024-09-16T19:34:37.487Z,2024-09-16T19:34:37.487Z,,,,,FALSE,FALSE,,[],,1,2000,0,0,63398b8a0d0a90001ffc520f,[],[],"[{""_id"":""66e8884d37dae7001da5ddcd"",""userId"":""66e8884d37dae7001da5ddcc"",""role"":""OWNER"",""email"":""a.algaban@rcu.gov.sa"",""created_at"":""2024-09-16T19:34:37.486Z"",""updated_at"":""2024-09-16T19:34:37.486Z""}]"
161,TRUE,New Business ,New Business1726658332709,,,,None,,2024-09-18T11:18:53.298Z,2024-09-18T13:15:05.305Z,,,,,TRUE,FALSE,,[],,1,2000,0,0,63398b8a0d0a90001ffc520f,[],[],"[{""_id"":""66eab71dcb033f001e651fb2"",""userId"":""66eab71dcb033f001e651fb1"",""role"":""OWNER"",""email"":""fc@rootshotel.com.sa"",""created_at"":""2024-09-18T11:18:53.292Z"",""updated_at"":""2024-09-18T11:18:53.292Z""}]"
162,FALSE,New Business ,New Business1727852662632,,,,None,,2024-10-02T07:04:23.194Z,2024-10-02T07:04:23.194Z,,,,,FALSE,FALSE,,[],,1,2000,0,0,63398b8a0d0a90001ffc520f,[],[],"[{""_id"":""66fcf077e069a5001dac348e"",""userId"":""66fcf077e069a5001dac348d"",""role"":""OWNER"",""email"":""boonus@resal.me"",""created_at"":""2024-10-02T07:04:23.193Z"",""updated_at"":""2024-10-02T07:04:23.193Z""}]"
163,FALSE,New Business ,New Business1727931415983,,,,None,,2024-10-03T04:56:56.582Z,2024-10-03T04:56:56.582Z,,,,,FALSE,FALSE,,[],,1,2000,0,0,63398b8a0d0a90001ffc520f,[],[],"[{""_id"":""66fe2418e069a5001de5f599"",""userId"":""66fe2418e069a5001de5f598"",""role"":""OWNER"",""email"":""leena@resal.com"",""created_at"":""2024-10-03T04:56:56.581Z"",""updated_at"":""2024-10-03T04:56:56.581Z""}]"
164,FALSE,New Business ,New Business1728202910641,,,,None,,2024-10-06T08:21:51.278Z,2024-10-06T08:21:51.278Z,,,,,FALSE,FALSE,,[],,1,2000,0,0,63398b8a0d0a90001ffc520f,[],[],"[{""_id"":""6702489f5f18fa001d9c0f72"",""userId"":""6702489f5f18fa001d9c0f71"",""role"":""OWNER"",""email"":""almurad.2002@gmail.com"",""created_at"":""2024-10-06T08:21:51.277Z"",""updated_at"":""2024-10-06T08:21:51.277Z""}]"
165,FALSE,New Business ,New Business1728203086471,,,,None,,2024-10-06T08:24:47.103Z,2024-10-06T08:24:47.103Z,,,,,FALSE,FALSE,,[],,1,2000,0,0,63398b8a0d0a90001ffc520f,[],[],"[{""_id"":""6702494f5f18fa001d9c27ed"",""userId"":""6702494f5f18fa001d9c27ec"",""role"":""OWNER"",""email"":""almurad1.com@gmail.com"",""created_at"":""2024-10-06T08:24:47.102Z"",""updated_at"":""2024-10-06T08:24:47.102Z""}]"
166,TRUE,New Business ,New Business1728470877886,,,,None,,2024-10-09T10:47:58.500Z,2024-10-09T10:48:21.369Z,,,,,TRUE,FALSE,,[],,1,2000,0,0,63398b8a0d0a90001ffc520f,[],[],"[{""_id"":""67065f5ea7a5e6001ef669b8"",""userId"":""67065f5ea7a5e6001ef669b7"",""role"":""OWNER"",""email"":""jamilali1977@yahoo.com"",""created_at"":""2024-10-09T10:47:58.499Z"",""updated_at"":""2024-10-09T10:47:58.499Z""}]"
167,FALSE,New Business ,New Business1728472491839,,,,None,,2024-10-09T11:14:52.413Z,2024-10-09T11:14:52.413Z,,,,,FALSE,FALSE,,[],,1,2000,0,0,63398b8a0d0a90001ffc520f,[],[],"[{""_id"":""670665aca7a5e6001ef78bbb"",""userId"":""670665aca7a5e6001ef78bba"",""role"":""OWNER"",""email"":""jamilali@gmail.com"",""created_at"":""2024-10-09T11:14:52.413Z"",""updated_at"":""2024-10-09T11:14:52.413Z""}]"
168,FALSE,New Business ,New Business1728976267839,,,,None,,2024-10-15T07:11:08.401Z,2024-10-15T07:11:08.401Z,,,,,FALSE,FALSE,,[],,1,2000,0,0,63398b8a0d0a90001ffc520f,[],[],"[{""_id"":""670e158ca604eb001d9f5c15"",""userId"":""670e158ca604eb001d9f5c14"",""role"":""OWNER"",""email"":""farmerr@outlook.com"",""created_at"":""2024-10-15T07:11:08.398Z"",""updated_at"":""2024-10-15T07:11:08.398Z""}]"
169,TRUE,New Business ,New Business1728995568186,,,,None,,2024-10-15T12:32:48.800Z,2024-10-23T16:17:34.823Z,,,,,TRUE,FALSE,,[],,1,2000,0,0,63398b8a0d0a90001ffc520f,[],[],"[{""_id"":""670e60f0b0c78b001de51f3d"",""userId"":""670e60f0b0c78b001de51f3c"",""role"":""OWNER"",""email"":""picarole2030@gmail.com"",""created_at"":""2024-10-15T12:32:48.800Z"",""updated_at"":""2024-10-15T12:32:48.800Z""}]"
170,FALSE,New Business ,New Business1729005837653,,,,None,,2024-10-15T15:23:58.222Z,2024-10-15T15:23:58.222Z,,,,,FALSE,FALSE,,[],,1,2000,0,0,63398b8a0d0a90001ffc520f,[],[],"[{""_id"":""670e890eb0c78b001df03f7b"",""userId"":""670e890eb0c78b001df03f7a"",""role"":""OWNER"",""email"":""home.marble@gmail.com"",""created_at"":""2024-10-15T15:23:58.221Z"",""updated_at"":""2024-10-15T15:23:58.221Z""}]"
171,TRUE,New Business ,New Business1729008858750,,,,None,,2024-10-15T16:14:19.309Z,2024-10-15T18:31:21.458Z,,,,,TRUE,FALSE,,[],,1,2000,0,0,63398b8a0d0a90001ffc520f,[],[],"[{""_id"":""670e94dbb0c78b001df397ed"",""userId"":""670e94dbb0c78b001df397ec"",""role"":""OWNER"",""email"":""farmerr@outlook.sa"",""created_at"":""2024-10-15T16:14:19.308Z"",""updated_at"":""2024-10-15T16:14:19.308Z""}]"
172,TRUE,New Business ,New Business1729009344164,,,,None,,2024-10-15T16:22:24.717Z,2024-10-15T18:30:53.356Z,,,,,TRUE,FALSE,,[],,1,2000,0,0,63398b8a0d0a90001ffc520f,[],[],"[{""_id"":""670e96c0b0c78b001df40fc4"",""userId"":""670e96c0b0c78b001df40fc3"",""role"":""OWNER"",""email"":""falmutairri@hotmail.com"",""created_at"":""2024-10-15T16:22:24.716Z"",""updated_at"":""2024-10-15T16:22:24.716Z""}]"
173,FALSE,New Business ,New Business1729152331438,,,,None,,2024-10-17T08:05:32.001Z,2024-10-17T08:05:32.001Z,,,,,FALSE,FALSE,,[],,1,2000,0,0,63398b8a0d0a90001ffc520f,[],[],"[{""_id"":""6710c54b1a5490001ddf9791"",""userId"":""6710c54b1a5490001ddf9790"",""role"":""OWNER"",""email"":""k18k18e@gmali.com"",""created_at"":""2024-10-17T08:05:32.000Z"",""updated_at"":""2024-10-17T08:05:32.000Z""}]"
174,FALSE,New Business ,New Business1729517361676,,,,None,,2024-10-21T13:29:22.289Z,2024-10-21T13:29:22.289Z,,,,,FALSE,FALSE,,[],,1,2000,0,0,63398b8a0d0a90001ffc520f,[],[],"[{""_id"":""67165732dd4b3c001eff5a43"",""userId"":""67165732dd4b3c001eff5a42"",""role"":""OWNER"",""email"":""yaqootjeddah@gmail.com"",""created_at"":""2024-10-21T13:29:22.289Z"",""updated_at"":""2024-10-21T13:29:22.289Z""}]"
175,FALSE,New Business ,New Business1730131887298,,,,None,,2024-10-28T16:11:27.880Z,2024-10-28T16:11:27.880Z,,,,,FALSE,FALSE,,[],,1,2000,0,0,63398b8a0d0a90001ffc520f,[],[],"[{""_id"":""671fb7afa5541d001d878332"",""userId"":""671fb7afa5541d001d878331"",""role"":""OWNER"",""email"":""emeswidan@gmail.com"",""created_at"":""2024-10-28T16:11:27.879Z"",""updated_at"":""2024-10-28T16:11:27.879Z""}]"
176,FALSE,New Business ,New Business1730370446912,,,,None,,2024-10-31T10:27:27.488Z,2024-10-31T10:27:27.488Z,,,,,FALSE,FALSE,,[],,1,2000,0,0,63398b8a0d0a90001ffc520f,[],[],"[{""_id"":""67235b8fa5541d001d5935cc"",""userId"":""67235b8fa5541d001d5935cb"",""role"":""OWNER"",""email"":""alrayaclub@booksession"",""created_at"":""2024-10-31T10:27:27.486Z"",""updated_at"":""2024-10-31T10:27:27.486Z""}]"
177,TRUE,New Business ,New Business1730794989021,مصدر القهوة,Has other active account : 672c7f80998db0001dddc453,,cafes,,2024-11-05T08:23:16.005Z,2024-11-05T08:35:30.521Z,https://prod-boonus-general.s3.ap-south-1.amazonaws.com/logo_6729d5eda7f29d001dcf7dca_BnX3YFuq66.jpeg,,,,TRUE,FALSE,,[],,1,2000,0,0,63398b8a0d0a90001ffc520f,[],[],"[{""_id"":""6729d5eda7f29d001dcf7dcd"",""userId"":""6729d5eda7f29d001dcf7dcc"",""role"":""OWNER"",""email"":""coffeesource714@gmail.com"",""created_at"":""2024-11-05T08:23:16.003Z"",""updated_at"":""2024-11-05T08:23:16.003Z""}]"
178,FALSE,New Business ,New Business1730989080785,,,,None,,2024-11-07T14:18:01.407Z,2024-11-07T14:18:01.407Z,,,,,FALSE,FALSE,,[],,1,2000,0,0,63398b8a0d0a90001ffc520f,[],[],"[{""_id"":""672ccc191d131c001d95dbbe"",""userId"":""672ccc191d131c001d95dbbd"",""role"":""OWNER"",""email"":""mbk1257@gmil.com"",""created_at"":""2024-11-07T14:18:01.406Z"",""updated_at"":""2024-11-07T14:18:01.406Z""}]"
179,FALSE,New Business ,New Business1730989342198,,,,None,,2024-11-07T14:22:22.792Z,2024-11-07T14:22:22.792Z,,,,,FALSE,FALSE,,[],,1,2000,0,0,63398b8a0d0a90001ffc520f,[],[],"[{""_id"":""672ccd1e1d131c001d9644e7"",""userId"":""672ccd1e1d131c001d9644e6"",""role"":""OWNER"",""email"":""almomayz000@gmail.com"",""created_at"":""2024-11-07T14:22:22.791Z"",""updated_at"":""2024-11-07T14:22:22.791Z""}]"
180,TRUE,New Business ,New Business1731011267579,,,,None,,2024-11-07T20:27:48.194Z,2024-11-07T20:42:01.618Z,,مركز تجميل نسائي واستديو تصوير وقسم خياطه,,,TRUE,FALSE,,[],مركز تجميل نسائي واستديو تصوير وقسم خياطه,1,2000,0,0,63398b8a0d0a90001ffc520f,[],[],"[{""_id"":""672d22c41d131c001db1a7eb"",""userId"":""672d22c41d131c001db1a7ea"",""role"":""OWNER"",""email"":""awatif.hawbani@hotmail.com"",""created_at"":""2024-11-07T20:27:48.192Z"",""updated_at"":""2024-11-07T20:27:48.192Z""}]"
181,FALSE,New Business ,New Business1731408333303,,,,None,,2024-11-12T10:45:34.027Z,2024-11-12T10:45:34.027Z,,,,,FALSE,FALSE,,[],,1,2000,0,0,63398b8a0d0a90001ffc520f,[],[],"[{""_id"":""673331cdc95ea0633c07fc39"",""userId"":""673331cdc95ea0633c07fc38"",""role"":""OWNER"",""email"":""test4@gmail.com"",""created_at"":""2024-11-12T10:45:34.017Z"",""updated_at"":""2024-11-12T10:45:34.017Z""}]"
182,FALSE,New Business ,New Business1731588915890,,,,None,,2024-11-14T12:55:16.574Z,2024-11-14T12:55:16.574Z,,,,,FALSE,FALSE,,[],,1,2000,0,0,63398b8a0d0a90001ffc520f,[],[],"[{""_id"":""6735f334664b20001db94ab7"",""userId"":""6735f334664b20001db94ab6"",""role"":""OWNER"",""email"":""awatif.hubany1977@gmail.com"",""created_at"":""2024-11-14T12:55:16.573Z"",""updated_at"":""2024-11-14T12:55:16.573Z""}]"
183,FALSE,New Business ,New Business1731950541948,,,,None,,2024-11-18T17:22:22.506Z,2024-11-18T17:22:22.506Z,,,,,FALSE,FALSE,,[],,1,2000,0,0,63398b8a0d0a90001ffc520f,[],[],"[{""_id"":""673b77cecd422d001d283e79"",""userId"":""673b77cecd422d001d283e78"",""role"":""OWNER"",""email"":""msg.lens1@gmail.com"",""created_at"":""2024-11-18T17:22:22.505Z"",""updated_at"":""2024-11-18T17:22:22.505Z""}]"
184,FALSE,New Business ,New Business1732097794973,,,,None,,2024-11-20T10:16:35.586Z,2024-11-20T10:16:35.586Z,,,,,FALSE,FALSE,,[],,1,2000,0,0,63398b8a0d0a90001ffc520f,[],[],"[{""_id"":""673db703ceb9bd001ef090da"",""userId"":""673db703ceb9bd001ef090d9"",""role"":""OWNER"",""email"":""ghaimawater1@gmail.com"",""created_at"":""2024-11-20T10:16:35.585Z"",""updated_at"":""2024-11-20T10:16:35.585Z""}]"
185,TRUE,New Business ,New Business1732548043261,,,,None,,2024-11-25T15:20:43.875Z,2024-11-25T15:21:23.745Z,,,,,TRUE,FALSE,,[],,1,2000,0,0,63398b8a0d0a90001ffc520f,[],[],"[{""_id"":""674495cba0c296001d55bffc"",""userId"":""674495cba0c296001d55bffb"",""role"":""OWNER"",""email"":""aalmaidan@gmail.com"",""created_at"":""2024-11-25T15:20:43.820Z"",""updated_at"":""2024-11-25T15:20:43.820Z""}]"
186,FALSE,New Business ,New Business1732638601229,,,,None,,2024-11-26T16:30:01.783Z,2024-11-26T16:30:01.783Z,,,,,FALSE,FALSE,,[],,1,2000,0,0,63398b8a0d0a90001ffc520f,[],[],"[{""_id"":""6745f789c65a70001d73ad77"",""userId"":""6745f789c65a70001d73ad76"",""role"":""OWNER"",""email"":""mr.oba8@gmail.com"",""created_at"":""2024-11-26T16:30:01.782Z"",""updated_at"":""2024-11-26T16:30:01.782Z""}]"
187,TRUE,New Business ,New Business1734960279998,,,,None,,2024-12-23T13:24:40.808Z,2024-12-23T13:26:33.991Z,,,,,TRUE,FALSE,,[],,1,2000,0,0,63398b8a0d0a90001ffc520f,[],[],"[{""_id"":""67696498863148001d68ab6c"",""userId"":""67696498863148001d68ab6b"",""role"":""OWNER"",""email"":""nokhba_clinicss@hotmail.com"",""created_at"":""2024-12-23T13:24:40.807Z"",""updated_at"":""2024-12-23T13:24:40.807Z""}]"
188,TRUE,New Business ,New Business1736935874929,,,,None,,2025-01-15T10:11:15.532Z,2025-01-15T10:11:44.401Z,,,,,TRUE,FALSE,,[],,1,2000,0,0,63398b8a0d0a90001ffc520f,[],[],"[{""_id"":""678789c3f257fb001da0a814"",""userId"":""678789c3f257fb001da0a813"",""role"":""OWNER"",""email"":""hany@aljonah.com"",""created_at"":""2025-01-15T10:11:15.531Z"",""updated_at"":""2025-01-15T10:11:15.531Z""}]"
189,TRUE,New Business ,New Business1737564711318,,,,None,,2025-01-22T16:51:52.025Z,2025-02-06T10:05:31.650Z,,,,,TRUE,FALSE,,[],,1,2000,0,0,66448045e046c1001e668a3d,[],[],"[{""_id"":""67912227430290001d774aeb"",""userId"":""67912227430290001d774aea"",""role"":""OWNER"",""email"":""dellarosa.perfumeria@gmail.com"",""created_at"":""2025-01-22T16:51:52.023Z"",""updated_at"":""2025-01-22T16:51:52.023Z""}]"
190,TRUE,New Business ,New Business1737742600692,,,,None,,2025-01-24T18:16:41.314Z,2025-02-06T09:40:14.843Z,,"



خمس غسلات و السادسة مجاناً

برنامج الإحالة

كيفية الحصول على طابع

بطاقة المشاركة

اغسل سيارتك خمس مرات، واحصل على السادسة مجانا

1 مكافأة

وصف الجائزة


ببساطة، عندما تقوم بغسل سيارتك خمس مرات ستتمكن من الحصول على جلسة غسيل سادسة بدون أي تكلفة إضافية.




شروط الاستخدام

1. يتوجب على العميل أن يقوم بالغسيل الخارجي والداخلي للحصول على الختم

2. يجب استخدام المكافآت خلال أيام الأسبوع، باستثناء الخميس والجمعة والسبت

3. يمنع استخدام المكافآت في أيام العيد.

4. جمع 5 أختام للحصول على مكافأة.

5. البطاقة والطوابع وصلاحية المكافآت ليست محدودة.

6. لا يمكن تبادل الطوابع والمكافآت أو إرجاعها أو استبدالها أو شراؤها بالنقد.

7. لا يمكن نقل البطاقات ودمجها مع بطاقات أخرى.

8. الشركة لديها الحق في رفض الخدمات.",,,TRUE,FALSE,,[],"
خمس غسلات و السادسة مجاناً

اغسل سيارتك خمس مرات، واحصل على السادسة مجانا

1 مكافأة

وصف الجائزة

ببساطة، عندما تقوم بغسل سيارتك خمس مرات ستتمكن من الحصول على غسيل سادسة مجاني

شروط الاستخدام

1. يتوجب على العميل أن يقوم بالغسيل الخارجي والداخلي للحصول على الختم

2 جمع 5 أختام للحصول على مكافأة .

3 البطاقة والطوابع وصلاحية المكافآت ليست محدودة.

4 لا يمكن تبادل الطوابع والمكافآت أو إرجاعها أو استبدالها أو شراؤها بالنقد.

5 لا يمكن نقل البطاقات ودمجها مع بطاقات أخرى.

6 الشركة لديها الحق في رفض الخدمات.


خمس غسلات و السادسة مجاناً

برنامج الإحالة

كيفية الحصول على طابع

بطاقة المشاركة

اغسل سيارتك خمس مرات، واحصل على السادسة مجانا

1 مكافأة

وصف الجائزة


ببساطة، عندما تقوم بغسل سيارتك خمس مرات ستتمكن من الحصول على جلسة غسيل سادسة بدون أي تكلفة إضافية.




شروط الاستخدام

1. يتوجب على العميل أن يقوم بالغسيل الخارجي والداخلي للحصول على الختم

2. يجب استخدام المكافآت خلال أيام الأسبوع، باستثناء الخميس والجمعة والسبت

3. يمنع استخدام المكافآت في أيام العيد.

4. جمع 5 أختام للحصول على مكافأة.

5. البطاقة والطوابع وصلاحية المكافآت ليست محدودة.

6. لا يمكن تبادل الطوابع والمكافآت أو إرجاعها أو استبدالها أو شراؤها بالنقد.

7. لا يمكن نقل البطاقات ودمجها مع بطاقات أخرى.

8. الشركة لديها الحق في رفض الخدمات.",1,2000,0,0,66448045e046c1001e668a3d,"[{""active"":false,""_id"":""6793f70829d9fe001d87c362"",""integrationName"":""FOODICS"",""activationDate"":""2025-01-25T18:33:45.972Z""}]","[{""sourceId"":null,""reference"":null,""main"":false,""active"":false,""_id"":""67952ee73a0e2b001d7e6818"",""lat"":""21.5"",""lng"":""39.17"",""workingHours"":{""sunday"":{""working"":true,""_id"":""67952ee73a0e2b001d7e6819"",""shifts"":[{""_id"":""67952ee73a0e2b001d7e681a"",""from"":""08:00"",""to"":""17:00""}]},""monday"":{""working"":true,""_id"":""67952ee73a0e2b001d7e681b"",""shifts"":[{""_id"":""67952ee73a0e2b001d7e681c"",""from"":""08:00"",""to"":""17:00""}]},""tuesday"":{""working"":true,""_id"":""67952ee73a0e2b001d7e681d"",""shifts"":[{""_id"":""67952ee73a0e2b001d7e681e"",""from"":""08:00"",""to"":""17:00""}]},""wednesday"":{""working"":true,""_id"":""67952ee73a0e2b001d7e681f"",""shifts"":[{""_id"":""67952ee73a0e2b001d7e6820"",""from"":""08:00"",""to"":""17:00""}]},""thursday"":{""working"":true,""_id"":""67952ee73a0e2b001d7e6821"",""shifts"":[{""_id"":""67952ee73a0e2b001d7e6822"",""from"":""08:00"",""to"":""17:00""}]},""friday"":{""working"":true,""_id"":""67952ee73a0e2b001d7e6823"",""shifts"":[{""_id"":""67952ee73a0e2b001d7e6824"",""from"":""08:00"",""to"":""17:00""}]},""saturday"":{""working"":true,""_id"":""67952ee73a0e2b001d7e6825"",""shifts"":[{""_id"":""67952ee73a0e2b001d7e6826"",""from"":""08:00"",""to"":""17:00""}]}},""updated_at"":""2025-01-25T18:35:19.908Z"",""created_at"":""2025-01-25T18:35:19.908Z""}]","[{""_id"":""6793d90929d9fe001d7cdced"",""userId"":""6793d90929d9fe001d7cdcec"",""role"":""OWNER"",""email"":""saadd.21175@gmail.com"",""created_at"":""2025-01-24T18:16:41.262Z"",""updated_at"":""2025-01-24T18:16:41.262Z""}]"
191,TRUE,New Business ,New Business1738572041345,,,,None,,2025-02-03T08:40:41.960Z,2025-02-03T08:44:08.633Z,,,,,TRUE,FALSE,,[],,1,2000,0,0,63398b8a0d0a90001ffc520f,[],[],"[{""_id"":""67a08109029f29001d343f90"",""userId"":""67a08109029f29001d343f8f"",""role"":""OWNER"",""email"":""aha.050@hotmail.com"",""created_at"":""2025-02-03T08:40:41.958Z"",""updated_at"":""2025-02-03T08:40:41.958Z""}]"
192,TRUE,New Business ,New Business1738579132938,,,,None,,2025-02-03T10:38:53.503Z,2025-02-03T11:00:54.838Z,,,,,TRUE,FALSE,,[],,1,2000,0,0,66448045e046c1001e668a3d,[],[],"[{""_id"":""67a09cbd6a5c47001d0c1f37"",""userId"":""67a09cbd6a5c47001d0c1f36"",""role"":""OWNER"",""email"":""galencomplex@gmail.com"",""created_at"":""2025-02-03T10:38:53.502Z"",""updated_at"":""2025-02-03T10:38:53.502Z""}]"
193,TRUE,New Business ,New Business1738706044691,,,,None,,2025-02-04T21:54:05.250Z,2025-02-04T21:54:20.242Z,,,,,TRUE,FALSE,,[],,1,2000,0,0,63398b8a0d0a90001ffc520f,[],[],"[{""_id"":""67a28c7d9ec772001de1af9b"",""userId"":""67a28c7d9ec772001de1af9a"",""role"":""OWNER"",""email"":""linda94943@gmail.com"",""created_at"":""2025-02-04T21:54:05.249Z"",""updated_at"":""2025-02-04T21:54:05.249Z""}]"
194,TRUE,New Business ,New Business1739089538228,,,,None,,2025-02-09T08:25:38.799Z,2025-02-09T08:26:09.179Z,,,,,TRUE,FALSE,,[],,1,2000,0,0,63398b8a0d0a90001ffc520f,[],[],"[{""_id"":""67a86682d8a75f001db7c3f4"",""userId"":""67a86682d8a75f001db7c3f3"",""role"":""OWNER"",""email"":""elmalehmohamed73@gmail.com"",""created_at"":""2025-02-09T08:25:38.797Z"",""updated_at"":""2025-02-09T08:25:38.797Z""}]"